{
 "type": "FeatureCollection",
 "features": [
  {
   "type": "Feature",
   "geometry": {
    "type": "Point",
    "coordinates": [
     -122.3705,
     37.8235
    ]
   },
   "properties": {
    "slug": "treasure-island",
    "name": "Treasure Island Campus",
    "city": "San Francisco",
    "region": "California",
    "districts": 3,
    "halls": 51,
    "provenance": "DERIVED",
    "source": "Treasure Island centroid, authored (WGS84)"
   }
  },
  {
   "type": "Feature",
   "geometry": {
    "type": "Point",
    "coordinates": [
     -122.2712,
     37.8044
    ]
   },
   "properties": {
    "slug": "oakland",
    "name": "Oakland Waterfront Campus",
    "city": "Oakland",
    "region": "California",
    "districts": 3,
    "halls": 32,
    "provenance": "RECORDED",
    "source": "Locator.X city table (src/app.js CITIES), Apache-2.0"
   }
  },
  {
   "type": "Feature",
   "geometry": {
    "type": "Point",
    "coordinates": [
     -90.0715,
     29.9511
    ]
   },
   "properties": {
    "slug": "new-orleans",
    "name": "Crescent Works Campus",
    "city": "New Orleans",
    "region": "Louisiana",
    "districts": 2,
    "halls": 28,
    "provenance": "DERIVED",
    "source": "New Orleans centroid, authored (WGS84)"
   }
  },
  {
   "type": "Feature",
   "geometry": {
    "type": "Point",
    "coordinates": [
     -95.3698,
     29.7604
    ]
   },
   "properties": {
    "slug": "houston",
    "name": "Bayou Energy Hub",
    "city": "Houston",
    "region": "Texas",
    "districts": 0,
    "halls": 0,
    "provenance": "AUTHORED",
    "source": "widely-published public geography (city-center), typed from general knowledge - not cross-checked against any file this build can verify"
   }
  },
  {
   "type": "Feature",
   "geometry": {
    "type": "Point",
    "coordinates": [
     -87.6298,
     41.8781
    ]
   },
   "properties": {
    "slug": "chicago",
    "name": "Loop Rail Hub",
    "city": "Chicago",
    "region": "Illinois",
    "districts": 0,
    "halls": 0,
    "provenance": "AUTHORED",
    "source": "widely-published public geography (city-center), typed from general knowledge - not cross-checked against any file this build can verify"
   }
  },
  {
   "type": "Feature",
   "geometry": {
    "type": "Point",
    "coordinates": [
     -122.3321,
     47.6062
    ]
   },
   "properties": {
    "slug": "seattle",
    "name": "Sound Aerospace Hub",
    "city": "Seattle",
    "region": "Washington",
    "districts": 0,
    "halls": 0,
    "provenance": "AUTHORED",
    "source": "widely-published public geography (city-center), typed from general knowledge - not cross-checked against any file this build can verify"
   }
  },
  {
   "type": "Feature",
   "geometry": {
    "type": "Point",
    "coordinates": [
     -79.9959,
     40.4406
    ]
   },
   "properties": {
    "slug": "pittsburgh",
    "name": "Three Rivers Steel Hub",
    "city": "Pittsburgh",
    "region": "Pennsylvania",
    "districts": 0,
    "halls": 0,
    "provenance": "AUTHORED",
    "source": "widely-published public geography (city-center), typed from general knowledge - not cross-checked against any file this build can verify"
   }
  },
  {
   "type": "Feature",
   "geometry": {
    "type": "Point",
    "coordinates": [
     -104.9903,
     39.7392
    ]
   },
   "properties": {
    "slug": "denver",
    "name": "Front Range Mining Hub",
    "city": "Denver",
    "region": "Colorado",
    "districts": 0,
    "halls": 0,
    "provenance": "AUTHORED",
    "source": "widely-published public geography (city-center), typed from general knowledge - not cross-checked against any file this build can verify"
   }
  },
  {
   "type": "Feature",
   "geometry": {
    "type": "Point",
    "coordinates": [
     -122.4194,
     37.7749
    ]
   },
   "properties": {
    "kind": "anchor",
    "name": "San Francisco",
    "near": "treasure-island",
    "provenance": "RECORDED",
    "source": "Locator.X src/app.js CITIES, Apache-2.0",
    "blurb": "The peninsula city at the Golden Gate - the Bay Area\u2019s historic urban core, west across the bay from the campus island.",
    "km": 6.9,
    "bearing_deg": 218.5,
    "blurb_provenance": "authored from public record"
   }
  },
  {
   "type": "Feature",
   "geometry": {
    "type": "Point",
    "coordinates": [
     -122.4853,
     37.859
    ]
   },
   "properties": {
    "kind": "anchor",
    "name": "Sausalito",
    "near": "treasure-island",
    "provenance": "RECORDED",
    "source": "Locator.X src/app.js CITIES, Apache-2.0",
    "blurb": "Waterfront town just inside the Golden Gate, on Richardson Bay under the Marin Headlands.",
    "km": 10.8,
    "bearing_deg": 291.4,
    "blurb_provenance": "authored from public record"
   }
  },
  {
   "type": "Feature",
   "geometry": {
    "type": "Point",
    "coordinates": [
     -122.2416,
     37.7652
    ]
   },
   "properties": {
    "kind": "anchor",
    "name": "Alameda",
    "near": "treasure-island",
    "provenance": "RECORDED",
    "source": "Locator.X src/app.js CITIES, Apache-2.0",
    "blurb": "Island city in San Francisco Bay beside Oakland, on the grounds of the former naval air station.",
    "km": 13.1,
    "bearing_deg": 119.7,
    "blurb_provenance": "authored from public record"
   }
  },
  {
   "type": "Feature",
   "geometry": {
    "type": "Point",
    "coordinates": [
     -122.4702,
     37.6879
    ]
   },
   "properties": {
    "kind": "anchor",
    "name": "Daly City",
    "near": "treasure-island",
    "provenance": "RECORDED",
    "source": "Locator.X src/app.js CITIES, Apache-2.0",
    "blurb": "The gateway city where the San Francisco peninsula meets San Mateo County.",
    "km": 17.4,
    "bearing_deg": 210.2,
    "blurb_provenance": "authored from public record"
   }
  },
  {
   "type": "Feature",
   "geometry": {
    "type": "Point",
    "coordinates": [
     -122.3477,
     37.9358
    ]
   },
   "properties": {
    "kind": "anchor",
    "name": "Richmond",
    "near": "treasure-island",
    "provenance": "RECORDED",
    "source": "Locator.X src/app.js CITIES, Apache-2.0",
    "blurb": "East Bay port city on San Pablo Bay, home of the wartime Kaiser shipyards.",
    "km": 12.6,
    "bearing_deg": 9.1,
    "blurb_provenance": "authored from public record"
   }
  },
  {
   "type": "Feature",
   "geometry": {
    "type": "Point",
    "coordinates": [
     -122.5311,
     37.9735
    ]
   },
   "properties": {
    "kind": "anchor",
    "name": "San Rafael",
    "near": "treasure-island",
    "provenance": "RECORDED",
    "source": "Locator.X src/app.js CITIES, Apache-2.0",
    "blurb": "Marin County\u2019s seat, north of the bay along the 101 corridor.",
    "km": 21.8,
    "bearing_deg": 319.9,
    "blurb_provenance": "authored from public record"
   }
  },
  {
   "type": "Feature",
   "geometry": {
    "type": "Point",
    "coordinates": [
     -122.4077,
     37.6547
    ]
   },
   "properties": {
    "kind": "anchor",
    "name": "South San Francisco",
    "near": "treasure-island",
    "provenance": "RECORDED",
    "source": "Locator.X src/app.js CITIES, Apache-2.0",
    "blurb": "The industrial city - its hillside sign says so - between San Francisco and the airport.",
    "km": 19.1,
    "bearing_deg": 189.9,
    "blurb_provenance": "authored from public record"
   }
  },
  {
   "type": "Feature",
   "geometry": {
    "type": "Point",
    "coordinates": [
     -122.3255,
     37.563
    ]
   },
   "properties": {
    "kind": "anchor",
    "name": "San Mateo",
    "near": "treasure-island",
    "provenance": "RECORDED",
    "source": "Locator.X src/app.js CITIES, Apache-2.0",
    "blurb": "Peninsula city midway between San Francisco and Silicon Valley.",
    "km": 29.2,
    "bearing_deg": 172.2,
    "blurb_provenance": "authored from public record"
   }
  },
  {
   "type": "Feature",
   "geometry": {
    "type": "Point",
    "coordinates": [
     -122.2727,
     37.8716
    ]
   },
   "properties": {
    "kind": "anchor",
    "name": "Berkeley",
    "near": "oakland",
    "provenance": "RECORDED",
    "source": "Locator.X src/app.js CITIES, Apache-2.0",
    "blurb": "East Bay city, home of the University of California\u2019s founding campus.",
    "km": 7.5,
    "bearing_deg": 359.0,
    "blurb_provenance": "authored from public record"
   }
  },
  {
   "type": "Feature",
   "geometry": {
    "type": "Point",
    "coordinates": [
     -122.2852,
     37.8313
    ]
   },
   "properties": {
    "kind": "anchor",
    "name": "Emeryville",
    "near": "oakland",
    "provenance": "RECORDED",
    "source": "Locator.X src/app.js CITIES, Apache-2.0",
    "blurb": "Compact industrial-turned-tech city at the foot of the Bay Bridge approach.",
    "km": 3.2,
    "bearing_deg": 337.7,
    "blurb_provenance": "authored from public record"
   }
  },
  {
   "type": "Feature",
   "geometry": {
    "type": "Point",
    "coordinates": [
     -122.2416,
     37.7652
    ]
   },
   "properties": {
    "kind": "anchor",
    "name": "Alameda",
    "near": "oakland",
    "provenance": "RECORDED",
    "source": "Locator.X src/app.js CITIES, Apache-2.0",
    "blurb": "Island city in San Francisco Bay beside Oakland, on the grounds of the former naval air station.",
    "km": 5.1,
    "bearing_deg": 149.2,
    "blurb_provenance": "authored from public record"
   }
  },
  {
   "type": "Feature",
   "geometry": {
    "type": "Point",
    "coordinates": [
     -122.1561,
     37.7249
    ]
   },
   "properties": {
    "kind": "anchor",
    "name": "San Leandro",
    "near": "oakland",
    "provenance": "RECORDED",
    "source": "Locator.X src/app.js CITIES, Apache-2.0",
    "blurb": "East Bay manufacturing city directly south of Oakland.",
    "km": 13.4,
    "bearing_deg": 131.1,
    "blurb_provenance": "authored from public record"
   }
  },
  {
   "type": "Feature",
   "geometry": {
    "type": "Point",
    "coordinates": [
     -90.1207,
     29.9404
    ]
   },
   "properties": {
    "kind": "anchor",
    "name": "Tulane University",
    "near": "new-orleans",
    "provenance": "RECORDED",
    "source": "Locator.X build_data_nola.py pois, Apache-2.0",
    "blurb": "Private research university Uptown on St. Charles Avenue, founded 1834; engineering and architecture among its schools.",
    "km": 4.9,
    "bearing_deg": 255.9,
    "blurb_provenance": "authored from public record"
   }
  },
  {
   "type": "Feature",
   "geometry": {
    "type": "Point",
    "coordinates": [
     -90.1073,
     29.9649
    ]
   },
   "properties": {
    "kind": "anchor",
    "name": "Xavier University",
    "near": "new-orleans",
    "provenance": "RECORDED",
    "source": "Locator.X build_data_nola.py pois, Apache-2.0",
    "blurb": "Xavier University of Louisiana - the nation\u2019s only historically Black and Catholic university.",
    "km": 3.8,
    "bearing_deg": 294.0,
    "blurb_provenance": "authored from public record"
   }
  },
  {
   "type": "Feature",
   "geometry": {
    "type": "Point",
    "coordinates": [
     -90.0664,
     30.0288
    ]
   },
   "properties": {
    "kind": "anchor",
    "name": "University of New Orleans",
    "near": "new-orleans",
    "provenance": "RECORDED",
    "source": "Locator.X build_data_nola.py pois, Apache-2.0",
    "blurb": "Public research university on the Lake Pontchartrain shore; home to naval architecture and marine engineering.",
    "km": 8.7,
    "bearing_deg": 3.3,
    "blurb_provenance": "authored from public record"
   }
  },
  {
   "type": "Feature",
   "geometry": {
    "type": "Point",
    "coordinates": [
     -90.105,
     29.9814
    ]
   },
   "properties": {
    "kind": "anchor",
    "name": "Delgado Community College",
    "near": "new-orleans",
    "provenance": "RECORDED",
    "source": "Locator.X build_data_nola.py pois, Apache-2.0",
    "blurb": "Louisiana\u2019s largest community college, City Park campus - the region\u2019s major technical and trades educator.",
    "km": 4.7,
    "bearing_deg": 316.2,
    "blurb_provenance": "authored from public record"
   }
  },
  {
   "type": "Feature",
   "geometry": {
    "type": "Point",
    "coordinates": [
     -90.1223,
     29.9351
    ]
   },
   "properties": {
    "kind": "anchor",
    "name": "Loyola University",
    "near": "new-orleans",
    "provenance": "RECORDED",
    "source": "Locator.X build_data_nola.py pois, Apache-2.0",
    "blurb": "Jesuit university on St. Charles Avenue, directly beside Tulane at Audubon Park.",
    "km": 5.2,
    "bearing_deg": 250.0,
    "blurb_provenance": "authored from public record"
   }
  },
  {
   "type": "Feature",
   "geometry": {
    "type": "Point",
    "coordinates": [
     -90.0517,
     29.9903
    ]
   },
   "properties": {
    "kind": "anchor",
    "name": "Dillard University",
    "near": "new-orleans",
    "provenance": "RECORDED",
    "source": "Locator.X build_data_nola.py pois, Apache-2.0",
    "blurb": "Historically Black university on Gentilly Boulevard, known for its oak-lined Avenue of the Oaks.",
    "km": 4.8,
    "bearing_deg": 23.6,
    "blurb_provenance": "authored from public record"
   }
  },
  {
   "type": "Feature",
   "geometry": {
    "type": "Point",
    "coordinates": [
     -90.033,
     30.0421
    ]
   },
   "properties": {
    "kind": "anchor",
    "name": "SUNO",
    "near": "new-orleans",
    "provenance": "RECORDED",
    "source": "Locator.X build_data_nola.py pois, Apache-2.0",
    "blurb": "Southern University at New Orleans - public historically Black university in Pontchartrain Park.",
    "km": 10.8,
    "bearing_deg": 20.1,
    "blurb_provenance": "authored from public record"
   }
  },
  {
   "type": "Feature",
   "geometry": {
    "type": "Point",
    "coordinates": [
     -95.27,
     29.735
    ]
   },
   "properties": {
    "kind": "anchor",
    "name": "Port of Houston Authority",
    "near": "houston",
    "provenance": "AUTHORED",
    "source": "the Houston Ship Channel port authority's Turning Basin district",
    "blurb": "One of the busiest ports in the United States by tonnage, on the Houston Ship Channel connecting the city to the Gulf of Mexico.",
    "km": 10.0,
    "bearing_deg": 106.3,
    "blurb_provenance": "authored from public record, the same tier as the coordinate itself"
   }
  },
  {
   "type": "Feature",
   "geometry": {
    "type": "Point",
    "coordinates": [
     -95.3422,
     29.7199
    ]
   },
   "properties": {
    "kind": "anchor",
    "name": "University of Houston",
    "near": "houston",
    "provenance": "AUTHORED",
    "source": "the public research university\u2019s main campus",
    "blurb": "Public research university southeast of downtown, Texas\u2019s third-largest by enrollment.",
    "km": 5.2,
    "bearing_deg": 149.4,
    "blurb_provenance": "authored from public record, the same tier as the coordinate itself"
   }
  },
  {
   "type": "Feature",
   "geometry": {
    "type": "Point",
    "coordinates": [
     -95.183,
     29.691
    ]
   },
   "properties": {
    "kind": "anchor",
    "name": "San Jacinto College",
    "near": "houston",
    "provenance": "AUTHORED",
    "source": "the Central campus in Pasadena, TX, known for its maritime and process-technology trades programs",
    "blurb": "Community college serving the Houston Ship Channel-area workforce, with real maritime, process-technology and trades programs.",
    "km": 19.6,
    "bearing_deg": 113.1,
    "blurb_provenance": "authored from public record, the same tier as the coordinate itself"
   }
  },
  {
   "type": "Feature",
   "geometry": {
    "type": "Point",
    "coordinates": [
     -95.3775,
     29.7241
    ]
   },
   "properties": {
    "kind": "anchor",
    "name": "Houston Community College",
    "near": "houston",
    "provenance": "AUTHORED",
    "source": "the community-college system\u2019s Central campus",
    "blurb": "One of the largest community college systems in the country, central to the city\u2019s technical and workforce education.",
    "km": 4.1,
    "bearing_deg": 190.4,
    "blurb_provenance": "authored from public record, the same tier as the coordinate itself"
   }
  },
  {
   "type": "Feature",
   "geometry": {
    "type": "Point",
    "coordinates": [
     -87.6359,
     41.8789
    ]
   },
   "properties": {
    "kind": "anchor",
    "name": "Chicago Union Station",
    "near": "chicago",
    "provenance": "AUTHORED",
    "source": "the city\u2019s major intercity and commuter rail terminal",
    "blurb": "The city\u2019s grand 1925 rail terminal on the west bank of the Chicago River, still Amtrak\u2019s hub for the entire Midwest.",
    "km": 0.5,
    "bearing_deg": 280.0,
    "blurb_provenance": "authored from public record, the same tier as the coordinate itself"
   }
  },
  {
   "type": "Feature",
   "geometry": {
    "type": "Point",
    "coordinates": [
     -87.6086,
     41.8917
    ]
   },
   "properties": {
    "kind": "anchor",
    "name": "Navy Pier",
    "near": "chicago",
    "provenance": "AUTHORED",
    "source": "the Lake Michigan pier and public landmark",
    "blurb": "A 1916 municipal pier on Lake Michigan, now one of the Midwest\u2019s most-visited public landmarks.",
    "km": 2.3,
    "bearing_deg": 49.2,
    "blurb_provenance": "authored from public record, the same tier as the coordinate itself"
   }
  },
  {
   "type": "Feature",
   "geometry": {
    "type": "Point",
    "coordinates": [
     -87.6505,
     41.8708
    ]
   },
   "properties": {
    "kind": "anchor",
    "name": "University of Illinois Chicago",
    "near": "chicago",
    "provenance": "AUTHORED",
    "source": "the public research university\u2019s campus",
    "blurb": "Public research university just west of the Loop, one of the city\u2019s largest employers and enrollments.",
    "km": 1.9,
    "bearing_deg": 244.7,
    "blurb_provenance": "authored from public record, the same tier as the coordinate itself"
   }
  },
  {
   "type": "Feature",
   "geometry": {
    "type": "Point",
    "coordinates": [
     -87.727,
     41.7648
    ]
   },
   "properties": {
    "kind": "anchor",
    "name": "Richard J. Daley College",
    "near": "chicago",
    "provenance": "AUTHORED",
    "source": "City Colleges of Chicago\u2019s construction-trades campus",
    "blurb": "City Colleges of Chicago\u2019s Southwest Side campus, home to its construction and manufacturing trades programs.",
    "km": 15.0,
    "bearing_deg": 212.6,
    "blurb_provenance": "authored from public record, the same tier as the coordinate itself"
   }
  },
  {
   "type": "Feature",
   "geometry": {
    "type": "Point",
    "coordinates": [
     -122.3428,
     47.6087
    ]
   },
   "properties": {
    "kind": "anchor",
    "name": "Port of Seattle",
    "near": "seattle",
    "provenance": "AUTHORED",
    "source": "the public port authority's Pier 69 headquarters on the central waterfront",
    "blurb": "The public port authority that runs the Seattle waterfront\u2019s seaport and Seattle\u2013Tacoma International Airport.",
    "km": 0.8,
    "bearing_deg": 289.1,
    "blurb_provenance": "authored from public record, the same tier as the coordinate itself"
   }
  },
  {
   "type": "Feature",
   "geometry": {
    "type": "Point",
    "coordinates": [
     -122.3035,
     47.6553
    ]
   },
   "properties": {
    "kind": "anchor",
    "name": "University of Washington",
    "near": "seattle",
    "provenance": "AUTHORED",
    "source": "the public research university\u2019s Seattle campus",
    "blurb": "Public research university on the Montlake cut, one of the largest and oldest on the West Coast.",
    "km": 5.9,
    "bearing_deg": 21.4,
    "blurb_provenance": "authored from public record, the same tier as the coordinate itself"
   }
  },
  {
   "type": "Feature",
   "geometry": {
    "type": "Point",
    "coordinates": [
     -122.2971,
     47.5185
    ]
   },
   "properties": {
    "kind": "anchor",
    "name": "Museum of Flight",
    "near": "seattle",
    "provenance": "AUTHORED",
    "source": "the aerospace museum at Boeing Field (King County International Airport)",
    "blurb": "The independent, non-profit air and space museum at Boeing Field, tracing the region\u2019s aerospace-manufacturing history.",
    "km": 10.1,
    "bearing_deg": 164.9,
    "blurb_provenance": "authored from public record, the same tier as the coordinate itself"
   }
  },
  {
   "type": "Feature",
   "geometry": {
    "type": "Point",
    "coordinates": [
     -122.3576,
     47.5495
    ]
   },
   "properties": {
    "kind": "anchor",
    "name": "South Seattle College",
    "near": "seattle",
    "provenance": "AUTHORED",
    "source": "the Seattle Colleges system\u2019s West Seattle campus",
    "blurb": "One of the three Seattle Colleges system campuses, with career-technical and apprenticeship-adjacent programs.",
    "km": 6.6,
    "bearing_deg": 196.9,
    "blurb_provenance": "authored from public record, the same tier as the coordinate itself"
   }
  },
  {
   "type": "Feature",
   "geometry": {
    "type": "Point",
    "coordinates": [
     -79.9958,
     40.438
    ]
   },
   "properties": {
    "kind": "anchor",
    "name": "Port of Pittsburgh Commission",
    "near": "pittsburgh",
    "provenance": "AUTHORED",
    "source": "the regional port authority for the Pittsburgh-area inland waterway system, headquartered near the three-rivers confluence",
    "blurb": "The state-chartered regional authority for the Pittsburgh district\u2019s inland waterways, the busiest inland port system in the country by tonnage.",
    "km": 0.3,
    "bearing_deg": 178.3,
    "blurb_provenance": "authored from public record, the same tier as the coordinate itself"
   }
  },
  {
   "type": "Feature",
   "geometry": {
    "type": "Point",
    "coordinates": [
     -79.9436,
     40.4443
    ]
   },
   "properties": {
    "kind": "anchor",
    "name": "Carnegie Mellon University",
    "near": "pittsburgh",
    "provenance": "AUTHORED",
    "source": "the private research university\u2019s Oakland (Pittsburgh) campus",
    "blurb": "Private research university in Pittsburgh\u2019s Oakland neighborhood, known for engineering, computer science and the arts.",
    "km": 4.4,
    "bearing_deg": 84.7,
    "blurb_provenance": "authored from public record, the same tier as the coordinate itself"
   }
  },
  {
   "type": "Feature",
   "geometry": {
    "type": "Point",
    "coordinates": [
     -79.8631,
     40.4062
    ]
   },
   "properties": {
    "kind": "anchor",
    "name": "Carrie Blast Furnaces National Historic Landmark",
    "near": "pittsburgh",
    "provenance": "AUTHORED",
    "source": "a former U.S. Steel blast-furnace plant on the Monongahela, part of the Rivers of Steel National Heritage Area",
    "blurb": "A former U.S. Steel ironmaking plant on the Monongahela River, preserved as part of the Rivers of Steel National Heritage Area.",
    "km": 11.9,
    "bearing_deg": 108.7,
    "blurb_provenance": "authored from public record, the same tier as the coordinate itself"
   }
  },
  {
   "type": "Feature",
   "geometry": {
    "type": "Point",
    "coordinates": [
     -80.009,
     40.453
    ]
   },
   "properties": {
    "kind": "anchor",
    "name": "Community College of Allegheny County",
    "near": "pittsburgh",
    "provenance": "AUTHORED",
    "source": "CCAC\u2019s Allegheny Campus on the North Side, with career-technical and trades programs",
    "blurb": "A public community-college system with real career-technical and trades programs across the Pittsburgh region.",
    "km": 1.8,
    "bearing_deg": 321.2,
    "blurb_provenance": "authored from public record, the same tier as the coordinate itself"
   }
  },
  {
   "type": "Feature",
   "geometry": {
    "type": "Point",
    "coordinates": [
     -105.2211,
     39.7503
    ]
   },
   "properties": {
    "kind": "anchor",
    "name": "Colorado School of Mines",
    "near": "denver",
    "provenance": "AUTHORED",
    "source": "the public mining and earth-sciences research university in Golden, just west of Denver",
    "blurb": "Public research university in Golden, Colorado, internationally known for mining, earth sciences and engineering.",
    "km": 19.8,
    "bearing_deg": 273.7,
    "blurb_provenance": "authored from public record, the same tier as the coordinate itself"
   }
  },
  {
   "type": "Feature",
   "geometry": {
    "type": "Point",
    "coordinates": [
     -105.1686,
     39.7407
    ]
   },
   "properties": {
    "kind": "anchor",
    "name": "National Renewable Energy Laboratory",
    "near": "denver",
    "provenance": "AUTHORED",
    "source": "the U.S. Department of Energy's national laboratory for renewable-energy research, on its South Table Mountain campus in Golden",
    "blurb": "The U.S. Department of Energy's primary national laboratory for renewable energy and energy efficiency research, based in Golden, Colorado.",
    "km": 15.2,
    "bearing_deg": 270.7,
    "blurb_provenance": "authored from public record, the same tier as the coordinate itself"
   }
  },
  {
   "type": "Feature",
   "geometry": {
    "type": "Point",
    "coordinates": [
     -105.0011,
     39.7539
    ]
   },
   "properties": {
    "kind": "anchor",
    "name": "Denver Union Station",
    "near": "denver",
    "provenance": "AUTHORED",
    "source": "the city's historic downtown transit hub for rail, bus and light rail",
    "blurb": "Denver's historic 1881 rail depot, restored as the downtown hub for Amtrak, commuter rail, light rail and bus.",
    "km": 1.9,
    "bearing_deg": 330.5,
    "blurb_provenance": "authored from public record, the same tier as the coordinate itself"
   }
  },
  {
   "type": "Feature",
   "geometry": {
    "type": "Point",
    "coordinates": [
     -105.0064,
     39.7444
    ]
   },
   "properties": {
    "kind": "anchor",
    "name": "Community College of Denver",
    "near": "denver",
    "provenance": "AUTHORED",
    "source": "the public community college on the Auraria Campus downtown, with career-technical and trades programs",
    "blurb": "A public community college on the Auraria Campus, with real career-technical and trades programs.",
    "km": 1.5,
    "bearing_deg": 292.8,
    "blurb_provenance": "authored from public record, the same tier as the coordinate itself"
   }
  }
 ]
}
