{
 "type": "FeatureCollection",
 "features": [
  {
   "type": "Feature",
   "geometry": {
    "type": "Point",
    "coordinates": [
     -122.3705,
     37.8235
    ]
   },
   "properties": {
    "slug": "treasure-island",
    "name": "Treasure Island Campus",
    "city": "San Francisco",
    "region": "California",
    "districts": 3,
    "halls": 51,
    "provenance": "DERIVED",
    "source": "Treasure Island centroid, authored (WGS84)"
   }
  },
  {
   "type": "Feature",
   "geometry": {
    "type": "Point",
    "coordinates": [
     -122.2712,
     37.8044
    ]
   },
   "properties": {
    "slug": "oakland",
    "name": "Oakland Waterfront Campus",
    "city": "Oakland",
    "region": "California",
    "districts": 3,
    "halls": 32,
    "provenance": "RECORDED",
    "source": "Locator.X city table (src/app.js CITIES), Apache-2.0"
   }
  },
  {
   "type": "Feature",
   "geometry": {
    "type": "Point",
    "coordinates": [
     -90.0715,
     29.9511
    ]
   },
   "properties": {
    "slug": "new-orleans",
    "name": "Crescent Works Campus",
    "city": "New Orleans",
    "region": "Louisiana",
    "districts": 2,
    "halls": 28,
    "provenance": "DERIVED",
    "source": "New Orleans centroid, authored (WGS84)"
   }
  },
  {
   "type": "Feature",
   "geometry": {
    "type": "Point",
    "coordinates": [
     -95.3698,
     29.7604
    ]
   },
   "properties": {
    "slug": "houston",
    "name": "Bayou Energy Hub",
    "city": "Houston",
    "region": "Texas",
    "districts": 0,
    "halls": 0,
    "provenance": "AUTHORED",
    "source": "widely-published public geography (city-center), typed from general knowledge - not cross-checked against any file this build can verify"
   }
  },
  {
   "type": "Feature",
   "geometry": {
    "type": "Point",
    "coordinates": [
     -87.6298,
     41.8781
    ]
   },
   "properties": {
    "slug": "chicago",
    "name": "Loop Rail Hub",
    "city": "Chicago",
    "region": "Illinois",
    "districts": 0,
    "halls": 0,
    "provenance": "AUTHORED",
    "source": "widely-published public geography (city-center), typed from general knowledge - not cross-checked against any file this build can verify"
   }
  },
  {
   "type": "Feature",
   "geometry": {
    "type": "Point",
    "coordinates": [
     -122.3321,
     47.6062
    ]
   },
   "properties": {
    "slug": "seattle",
    "name": "Sound Aerospace Hub",
    "city": "Seattle",
    "region": "Washington",
    "districts": 0,
    "halls": 0,
    "provenance": "AUTHORED",
    "source": "widely-published public geography (city-center), typed from general knowledge - not cross-checked against any file this build can verify"
   }
  },
  {
   "type": "Feature",
   "geometry": {
    "type": "Point",
    "coordinates": [
     -79.9959,
     40.4406
    ]
   },
   "properties": {
    "slug": "pittsburgh",
    "name": "Three Rivers Steel Hub",
    "city": "Pittsburgh",
    "region": "Pennsylvania",
    "districts": 0,
    "halls": 0,
    "provenance": "AUTHORED",
    "source": "widely-published public geography (city-center), typed from general knowledge - not cross-checked against any file this build can verify"
   }
  },
  {
   "type": "Feature",
   "geometry": {
    "type": "Point",
    "coordinates": [
     -104.9903,
     39.7392
    ]
   },
   "properties": {
    "slug": "denver",
    "name": "Front Range Mining Hub",
    "city": "Denver",
    "region": "Colorado",
    "districts": 0,
    "halls": 0,
    "provenance": "AUTHORED",
    "source": "widely-published public geography (city-center), typed from general knowledge - not cross-checked against any file this build can verify"
   }
  },
  {
   "type": "Feature",
   "geometry": {
    "type": "Point",
    "coordinates": [
     -80.1918,
     25.7617
    ]
   },
   "properties": {
    "slug": "miami",
    "name": "Biscayne Coastal Hub",
    "city": "Miami",
    "region": "Florida",
    "districts": 0,
    "halls": 0,
    "provenance": "AUTHORED",
    "source": "widely-published public geography (city-center), typed from general knowledge - not cross-checked against any file this build can verify"
   }
  },
  {
   "type": "Feature",
   "geometry": {
    "type": "Point",
    "coordinates": [
     -122.4194,
     37.7749
    ]
   },
   "properties": {
    "kind": "anchor",
    "name": "San Francisco",
    "near": "treasure-island",
    "provenance": "RECORDED",
    "source": "Locator.X src/app.js CITIES, Apache-2.0",
    "blurb": "The peninsula city at the Golden Gate - the Bay Area\u2019s historic urban core, west across the bay from the campus island.",
    "km": 6.9,
    "bearing_deg": 218.5,
    "blurb_provenance": "authored from public record"
   }
  },
  {
   "type": "Feature",
   "geometry": {
    "type": "Point",
    "coordinates": [
     -122.4853,
     37.859
    ]
   },
   "properties": {
    "kind": "anchor",
    "name": "Sausalito",
    "near": "treasure-island",
    "provenance": "RECORDED",
    "source": "Locator.X src/app.js CITIES, Apache-2.0",
    "blurb": "Waterfront town just inside the Golden Gate, on Richardson Bay under the Marin Headlands.",
    "km": 10.8,
    "bearing_deg": 291.4,
    "blurb_provenance": "authored from public record"
   }
  },
  {
   "type": "Feature",
   "geometry": {
    "type": "Point",
    "coordinates": [
     -122.2416,
     37.7652
    ]
   },
   "properties": {
    "kind": "anchor",
    "name": "Alameda",
    "near": "treasure-island",
    "provenance": "RECORDED",
    "source": "Locator.X src/app.js CITIES, Apache-2.0",
    "blurb": "Island city in San Francisco Bay beside Oakland, on the grounds of the former naval air station.",
    "km": 13.1,
    "bearing_deg": 119.7,
    "blurb_provenance": "authored from public record"
   }
  },
  {
   "type": "Feature",
   "geometry": {
    "type": "Point",
    "coordinates": [
     -122.4702,
     37.6879
    ]
   },
   "properties": {
    "kind": "anchor",
    "name": "Daly City",
    "near": "treasure-island",
    "provenance": "RECORDED",
    "source": "Locator.X src/app.js CITIES, Apache-2.0",
    "blurb": "The gateway city where the San Francisco peninsula meets San Mateo County.",
    "km": 17.4,
    "bearing_deg": 210.2,
    "blurb_provenance": "authored from public record"
   }
  },
  {
   "type": "Feature",
   "geometry": {
    "type": "Point",
    "coordinates": [
     -122.3477,
     37.9358
    ]
   },
   "properties": {
    "kind": "anchor",
    "name": "Richmond",
    "near": "treasure-island",
    "provenance": "RECORDED",
    "source": "Locator.X src/app.js CITIES, Apache-2.0",
    "blurb": "East Bay port city on San Pablo Bay, home of the wartime Kaiser shipyards.",
    "km": 12.6,
    "bearing_deg": 9.1,
    "blurb_provenance": "authored from public record"
   }
  },
  {
   "type": "Feature",
   "geometry": {
    "type": "Point",
    "coordinates": [
     -122.5311,
     37.9735
    ]
   },
   "properties": {
    "kind": "anchor",
    "name": "San Rafael",
    "near": "treasure-island",
    "provenance": "RECORDED",
    "source": "Locator.X src/app.js CITIES, Apache-2.0",
    "blurb": "Marin County\u2019s seat, north of the bay along the 101 corridor.",
    "km": 21.8,
    "bearing_deg": 319.9,
    "blurb_provenance": "authored from public record"
   }
  },
  {
   "type": "Feature",
   "geometry": {
    "type": "Point",
    "coordinates": [
     -122.4077,
     37.6547
    ]
   },
   "properties": {
    "kind": "anchor",
    "name": "South San Francisco",
    "near": "treasure-island",
    "provenance": "RECORDED",
    "source": "Locator.X src/app.js CITIES, Apache-2.0",
    "blurb": "The industrial city - its hillside sign says so - between San Francisco and the airport.",
    "km": 19.1,
    "bearing_deg": 189.9,
    "blurb_provenance": "authored from public record"
   }
  },
  {
   "type": "Feature",
   "geometry": {
    "type": "Point",
    "coordinates": [
     -122.3255,
     37.563
    ]
   },
   "properties": {
    "kind": "anchor",
    "name": "San Mateo",
    "near": "treasure-island",
    "provenance": "RECORDED",
    "source": "Locator.X src/app.js CITIES, Apache-2.0",
    "blurb": "Peninsula city midway between San Francisco and Silicon Valley.",
    "km": 29.2,
    "bearing_deg": 172.2,
    "blurb_provenance": "authored from public record"
   }
  },
  {
   "type": "Feature",
   "geometry": {
    "type": "Point",
    "coordinates": [
     -122.2727,
     37.8716
    ]
   },
   "properties": {
    "kind": "anchor",
    "name": "Berkeley",
    "near": "oakland",
    "provenance": "RECORDED",
    "source": "Locator.X src/app.js CITIES, Apache-2.0",
    "blurb": "East Bay city, home of the University of California\u2019s founding campus.",
    "km": 7.5,
    "bearing_deg": 359.0,
    "blurb_provenance": "authored from public record"
   }
  },
  {
   "type": "Feature",
   "geometry": {
    "type": "Point",
    "coordinates": [
     -122.2852,
     37.8313
    ]
   },
   "properties": {
    "kind": "anchor",
    "name": "Emeryville",
    "near": "oakland",
    "provenance": "RECORDED",
    "source": "Locator.X src/app.js CITIES, Apache-2.0",
    "blurb": "Compact industrial-turned-tech city at the foot of the Bay Bridge approach.",
    "km": 3.2,
    "bearing_deg": 337.7,
    "blurb_provenance": "authored from public record"
   }
  },
  {
   "type": "Feature",
   "geometry": {
    "type": "Point",
    "coordinates": [
     -122.2416,
     37.7652
    ]
   },
   "properties": {
    "kind": "anchor",
    "name": "Alameda",
    "near": "oakland",
    "provenance": "RECORDED",
    "source": "Locator.X src/app.js CITIES, Apache-2.0",
    "blurb": "Island city in San Francisco Bay beside Oakland, on the grounds of the former naval air station.",
    "km": 5.1,
    "bearing_deg": 149.2,
    "blurb_provenance": "authored from public record"
   }
  },
  {
   "type": "Feature",
   "geometry": {
    "type": "Point",
    "coordinates": [
     -122.1561,
     37.7249
    ]
   },
   "properties": {
    "kind": "anchor",
    "name": "San Leandro",
    "near": "oakland",
    "provenance": "RECORDED",
    "source": "Locator.X src/app.js CITIES, Apache-2.0",
    "blurb": "East Bay manufacturing city directly south of Oakland.",
    "km": 13.4,
    "bearing_deg": 131.1,
    "blurb_provenance": "authored from public record"
   }
  },
  {
   "type": "Feature",
   "geometry": {
    "type": "Point",
    "coordinates": [
     -90.1207,
     29.9404
    ]
   },
   "properties": {
    "kind": "anchor",
    "name": "Tulane University",
    "near": "new-orleans",
    "provenance": "RECORDED",
    "source": "Locator.X build_data_nola.py pois, Apache-2.0",
    "blurb": "Private research university Uptown on St. Charles Avenue, founded 1834; engineering and architecture among its schools.",
    "km": 4.9,
    "bearing_deg": 255.9,
    "blurb_provenance": "authored from public record"
   }
  },
  {
   "type": "Feature",
   "geometry": {
    "type": "Point",
    "coordinates": [
     -90.1073,
     29.9649
    ]
   },
   "properties": {
    "kind": "anchor",
    "name": "Xavier University",
    "near": "new-orleans",
    "provenance": "RECORDED",
    "source": "Locator.X build_data_nola.py pois, Apache-2.0",
    "blurb": "Xavier University of Louisiana - the nation\u2019s only historically Black and Catholic university.",
    "km": 3.8,
    "bearing_deg": 294.0,
    "blurb_provenance": "authored from public record"
   }
  },
  {
   "type": "Feature",
   "geometry": {
    "type": "Point",
    "coordinates": [
     -90.0664,
     30.0288
    ]
   },
   "properties": {
    "kind": "anchor",
    "name": "University of New Orleans",
    "near": "new-orleans",
    "provenance": "RECORDED",
    "source": "Locator.X build_data_nola.py pois, Apache-2.0",
    "blurb": "Public research university on the Lake Pontchartrain shore; home to naval architecture and marine engineering.",
    "km": 8.7,
    "bearing_deg": 3.3,
    "blurb_provenance": "authored from public record"
   }
  },
  {
   "type": "Feature",
   "geometry": {
    "type": "Point",
    "coordinates": [
     -90.105,
     29.9814
    ]
   },
   "properties": {
    "kind": "anchor",
    "name": "Delgado Community College",
    "near": "new-orleans",
    "provenance": "RECORDED",
    "source": "Locator.X build_data_nola.py pois, Apache-2.0",
    "blurb": "Louisiana\u2019s largest community college, City Park campus - the region\u2019s major technical and trades educator.",
    "km": 4.7,
    "bearing_deg": 316.2,
    "blurb_provenance": "authored from public record"
   }
  },
  {
   "type": "Feature",
   "geometry": {
    "type": "Point",
    "coordinates": [
     -90.1223,
     29.9351
    ]
   },
   "properties": {
    "kind": "anchor",
    "name": "Loyola University",
    "near": "new-orleans",
    "provenance": "RECORDED",
    "source": "Locator.X build_data_nola.py pois, Apache-2.0",
    "blurb": "Jesuit university on St. Charles Avenue, directly beside Tulane at Audubon Park.",
    "km": 5.2,
    "bearing_deg": 250.0,
    "blurb_provenance": "authored from public record"
   }
  },
  {
   "type": "Feature",
   "geometry": {
    "type": "Point",
    "coordinates": [
     -90.0517,
     29.9903
    ]
   },
   "properties": {
    "kind": "anchor",
    "name": "Dillard University",
    "near": "new-orleans",
    "provenance": "RECORDED",
    "source": "Locator.X build_data_nola.py pois, Apache-2.0",
    "blurb": "Historically Black university on Gentilly Boulevard, known for its oak-lined Avenue of the Oaks.",
    "km": 4.8,
    "bearing_deg": 23.6,
    "blurb_provenance": "authored from public record"
   }
  },
  {
   "type": "Feature",
   "geometry": {
    "type": "Point",
    "coordinates": [
     -90.033,
     30.0421
    ]
   },
   "properties": {
    "kind": "anchor",
    "name": "SUNO",
    "near": "new-orleans",
    "provenance": "RECORDED",
    "source": "Locator.X build_data_nola.py pois, Apache-2.0",
    "blurb": "Southern University at New Orleans - public historically Black university in Pontchartrain Park.",
    "km": 10.8,
    "bearing_deg": 20.1,
    "blurb_provenance": "authored from public record"
   }
  },
  {
   "type": "Feature",
   "geometry": {
    "type": "Point",
    "coordinates": [
     -95.27,
     29.735
    ]
   },
   "properties": {
    "kind": "anchor",
    "name": "Port of Houston Authority",
    "near": "houston",
    "provenance": "AUTHORED",
    "source": "the Houston Ship Channel port authority's Turning Basin district",
    "blurb": "One of the busiest ports in the United States by tonnage, on the Houston Ship Channel connecting the city to the Gulf of Mexico.",
    "km": 10.0,
    "bearing_deg": 106.3,
    "blurb_provenance": "authored from public record, the same tier as the coordinate itself"
   }
  },
  {
   "type": "Feature",
   "geometry": {
    "type": "Point",
    "coordinates": [
     -95.3422,
     29.7199
    ]
   },
   "properties": {
    "kind": "anchor",
    "name": "University of Houston",
    "near": "houston",
    "provenance": "AUTHORED",
    "source": "the public research university\u2019s main campus",
    "blurb": "Public research university southeast of downtown, Texas\u2019s third-largest by enrollment.",
    "km": 5.2,
    "bearing_deg": 149.4,
    "blurb_provenance": "authored from public record, the same tier as the coordinate itself"
   }
  },
  {
   "type": "Feature",
   "geometry": {
    "type": "Point",
    "coordinates": [
     -95.183,
     29.691
    ]
   },
   "properties": {
    "kind": "anchor",
    "name": "San Jacinto College",
    "near": "houston",
    "provenance": "AUTHORED",
    "source": "the Central campus in Pasadena, TX, known for its maritime and process-technology trades programs",
    "blurb": "Community college serving the Houston Ship Channel-area workforce, with real maritime, process-technology and trades programs.",
    "km": 19.6,
    "bearing_deg": 113.1,
    "blurb_provenance": "authored from public record, the same tier as the coordinate itself"
   }
  },
  {
   "type": "Feature",
   "geometry": {
    "type": "Point",
    "coordinates": [
     -95.3775,
     29.7241
    ]
   },
   "properties": {
    "kind": "anchor",
    "name": "Houston Community College",
    "near": "houston",
    "provenance": "AUTHORED",
    "source": "the community-college system\u2019s Central campus",
    "blurb": "One of the largest community college systems in the country, central to the city\u2019s technical and workforce education.",
    "km": 4.1,
    "bearing_deg": 190.4,
    "blurb_provenance": "authored from public record, the same tier as the coordinate itself"
   }
  },
  {
   "type": "Feature",
   "geometry": {
    "type": "Point",
    "coordinates": [
     -87.6359,
     41.8789
    ]
   },
   "properties": {
    "kind": "anchor",
    "name": "Chicago Union Station",
    "near": "chicago",
    "provenance": "AUTHORED",
    "source": "the city\u2019s major intercity and commuter rail terminal",
    "blurb": "The city\u2019s grand 1925 rail terminal on the west bank of the Chicago River, still Amtrak\u2019s hub for the entire Midwest.",
    "km": 0.5,
    "bearing_deg": 280.0,
    "blurb_provenance": "authored from public record, the same tier as the coordinate itself"
   }
  },
  {
   "type": "Feature",
   "geometry": {
    "type": "Point",
    "coordinates": [
     -87.6086,
     41.8917
    ]
   },
   "properties": {
    "kind": "anchor",
    "name": "Navy Pier",
    "near": "chicago",
    "provenance": "AUTHORED",
    "source": "the Lake Michigan pier and public landmark",
    "blurb": "A 1916 municipal pier on Lake Michigan, now one of the Midwest\u2019s most-visited public landmarks.",
    "km": 2.3,
    "bearing_deg": 49.2,
    "blurb_provenance": "authored from public record, the same tier as the coordinate itself"
   }
  },
  {
   "type": "Feature",
   "geometry": {
    "type": "Point",
    "coordinates": [
     -87.6505,
     41.8708
    ]
   },
   "properties": {
    "kind": "anchor",
    "name": "University of Illinois Chicago",
    "near": "chicago",
    "provenance": "AUTHORED",
    "source": "the public research university\u2019s campus",
    "blurb": "Public research university just west of the Loop, one of the city\u2019s largest employers and enrollments.",
    "km": 1.9,
    "bearing_deg": 244.7,
    "blurb_provenance": "authored from public record, the same tier as the coordinate itself"
   }
  },
  {
   "type": "Feature",
   "geometry": {
    "type": "Point",
    "coordinates": [
     -87.727,
     41.7648
    ]
   },
   "properties": {
    "kind": "anchor",
    "name": "Richard J. Daley College",
    "near": "chicago",
    "provenance": "AUTHORED",
    "source": "City Colleges of Chicago\u2019s construction-trades campus",
    "blurb": "City Colleges of Chicago\u2019s Southwest Side campus, home to its construction and manufacturing trades programs.",
    "km": 15.0,
    "bearing_deg": 212.6,
    "blurb_provenance": "authored from public record, the same tier as the coordinate itself"
   }
  },
  {
   "type": "Feature",
   "geometry": {
    "type": "Point",
    "coordinates": [
     -122.3428,
     47.6087
    ]
   },
   "properties": {
    "kind": "anchor",
    "name": "Port of Seattle",
    "near": "seattle",
    "provenance": "AUTHORED",
    "source": "the public port authority's Pier 69 headquarters on the central waterfront",
    "blurb": "The public port authority that runs the Seattle waterfront\u2019s seaport and Seattle\u2013Tacoma International Airport.",
    "km": 0.8,
    "bearing_deg": 289.1,
    "blurb_provenance": "authored from public record, the same tier as the coordinate itself"
   }
  },
  {
   "type": "Feature",
   "geometry": {
    "type": "Point",
    "coordinates": [
     -122.3035,
     47.6553
    ]
   },
   "properties": {
    "kind": "anchor",
    "name": "University of Washington",
    "near": "seattle",
    "provenance": "AUTHORED",
    "source": "the public research university\u2019s Seattle campus",
    "blurb": "Public research university on the Montlake cut, one of the largest and oldest on the West Coast.",
    "km": 5.9,
    "bearing_deg": 21.4,
    "blurb_provenance": "authored from public record, the same tier as the coordinate itself"
   }
  },
  {
   "type": "Feature",
   "geometry": {
    "type": "Point",
    "coordinates": [
     -122.2971,
     47.5185
    ]
   },
   "properties": {
    "kind": "anchor",
    "name": "Museum of Flight",
    "near": "seattle",
    "provenance": "AUTHORED",
    "source": "the aerospace museum at Boeing Field (King County International Airport)",
    "blurb": "The independent, non-profit air and space museum at Boeing Field, tracing the region\u2019s aerospace-manufacturing history.",
    "km": 10.1,
    "bearing_deg": 164.9,
    "blurb_provenance": "authored from public record, the same tier as the coordinate itself"
   }
  },
  {
   "type": "Feature",
   "geometry": {
    "type": "Point",
    "coordinates": [
     -122.3576,
     47.5495
    ]
   },
   "properties": {
    "kind": "anchor",
    "name": "South Seattle College",
    "near": "seattle",
    "provenance": "AUTHORED",
    "source": "the Seattle Colleges system\u2019s West Seattle campus",
    "blurb": "One of the three Seattle Colleges system campuses, with career-technical and apprenticeship-adjacent programs.",
    "km": 6.6,
    "bearing_deg": 196.9,
    "blurb_provenance": "authored from public record, the same tier as the coordinate itself"
   }
  },
  {
   "type": "Feature",
   "geometry": {
    "type": "Point",
    "coordinates": [
     -79.9958,
     40.438
    ]
   },
   "properties": {
    "kind": "anchor",
    "name": "Port of Pittsburgh Commission",
    "near": "pittsburgh",
    "provenance": "AUTHORED",
    "source": "the regional port authority for the Pittsburgh-area inland waterway system, headquartered near the three-rivers confluence",
    "blurb": "The state-chartered regional authority for the Pittsburgh district\u2019s inland waterways, the busiest inland port system in the country by tonnage.",
    "km": 0.3,
    "bearing_deg": 178.3,
    "blurb_provenance": "authored from public record, the same tier as the coordinate itself"
   }
  },
  {
   "type": "Feature",
   "geometry": {
    "type": "Point",
    "coordinates": [
     -79.9436,
     40.4443
    ]
   },
   "properties": {
    "kind": "anchor",
    "name": "Carnegie Mellon University",
    "near": "pittsburgh",
    "provenance": "AUTHORED",
    "source": "the private research university\u2019s Oakland (Pittsburgh) campus",
    "blurb": "Private research university in Pittsburgh\u2019s Oakland neighborhood, known for engineering, computer science and the arts.",
    "km": 4.4,
    "bearing_deg": 84.7,
    "blurb_provenance": "authored from public record, the same tier as the coordinate itself"
   }
  },
  {
   "type": "Feature",
   "geometry": {
    "type": "Point",
    "coordinates": [
     -79.8631,
     40.4062
    ]
   },
   "properties": {
    "kind": "anchor",
    "name": "Carrie Blast Furnaces National Historic Landmark",
    "near": "pittsburgh",
    "provenance": "AUTHORED",
    "source": "a former U.S. Steel blast-furnace plant on the Monongahela, part of the Rivers of Steel National Heritage Area",
    "blurb": "A former U.S. Steel ironmaking plant on the Monongahela River, preserved as part of the Rivers of Steel National Heritage Area.",
    "km": 11.9,
    "bearing_deg": 108.7,
    "blurb_provenance": "authored from public record, the same tier as the coordinate itself"
   }
  },
  {
   "type": "Feature",
   "geometry": {
    "type": "Point",
    "coordinates": [
     -80.009,
     40.453
    ]
   },
   "properties": {
    "kind": "anchor",
    "name": "Community College of Allegheny County",
    "near": "pittsburgh",
    "provenance": "AUTHORED",
    "source": "CCAC\u2019s Allegheny Campus on the North Side, with career-technical and trades programs",
    "blurb": "A public community-college system with real career-technical and trades programs across the Pittsburgh region.",
    "km": 1.8,
    "bearing_deg": 321.2,
    "blurb_provenance": "authored from public record, the same tier as the coordinate itself"
   }
  },
  {
   "type": "Feature",
   "geometry": {
    "type": "Point",
    "coordinates": [
     -105.2211,
     39.7503
    ]
   },
   "properties": {
    "kind": "anchor",
    "name": "Colorado School of Mines",
    "near": "denver",
    "provenance": "AUTHORED",
    "source": "the public mining and earth-sciences research university in Golden, just west of Denver",
    "blurb": "Public research university in Golden, Colorado, internationally known for mining, earth sciences and engineering.",
    "km": 19.8,
    "bearing_deg": 273.7,
    "blurb_provenance": "authored from public record, the same tier as the coordinate itself"
   }
  },
  {
   "type": "Feature",
   "geometry": {
    "type": "Point",
    "coordinates": [
     -105.1686,
     39.7407
    ]
   },
   "properties": {
    "kind": "anchor",
    "name": "National Renewable Energy Laboratory",
    "near": "denver",
    "provenance": "AUTHORED",
    "source": "the U.S. Department of Energy's national laboratory for renewable-energy research, on its South Table Mountain campus in Golden",
    "blurb": "The U.S. Department of Energy's primary national laboratory for renewable energy and energy efficiency research, based in Golden, Colorado.",
    "km": 15.2,
    "bearing_deg": 270.7,
    "blurb_provenance": "authored from public record, the same tier as the coordinate itself"
   }
  },
  {
   "type": "Feature",
   "geometry": {
    "type": "Point",
    "coordinates": [
     -105.0011,
     39.7539
    ]
   },
   "properties": {
    "kind": "anchor",
    "name": "Denver Union Station",
    "near": "denver",
    "provenance": "AUTHORED",
    "source": "the city's historic downtown transit hub for rail, bus and light rail",
    "blurb": "Denver's historic 1881 rail depot, restored as the downtown hub for Amtrak, commuter rail, light rail and bus.",
    "km": 1.9,
    "bearing_deg": 330.5,
    "blurb_provenance": "authored from public record, the same tier as the coordinate itself"
   }
  },
  {
   "type": "Feature",
   "geometry": {
    "type": "Point",
    "coordinates": [
     -105.0064,
     39.7444
    ]
   },
   "properties": {
    "kind": "anchor",
    "name": "Community College of Denver",
    "near": "denver",
    "provenance": "AUTHORED",
    "source": "the public community college on the Auraria Campus downtown, with career-technical and trades programs",
    "blurb": "A public community college on the Auraria Campus, with real career-technical and trades programs.",
    "km": 1.5,
    "bearing_deg": 292.8,
    "blurb_provenance": "authored from public record, the same tier as the coordinate itself"
   }
  },
  {
   "type": "Feature",
   "geometry": {
    "type": "Point",
    "coordinates": [
     -80.1719,
     25.7716
    ]
   },
   "properties": {
    "kind": "anchor",
    "name": "PortMiami",
    "near": "miami",
    "provenance": "AUTHORED",
    "source": "Miami-Dade County's seaport authority, on Dodge Island in Biscayne Bay",
    "blurb": "Miami-Dade County's seaport authority on Dodge Island, one of the busiest cargo and cruise ports in the country.",
    "km": 2.3,
    "bearing_deg": 61.1,
    "blurb_provenance": "authored from public record, the same tier as the coordinate itself"
   }
  },
  {
   "type": "Feature",
   "geometry": {
    "type": "Point",
    "coordinates": [
     -80.1615,
     25.7302
    ]
   },
   "properties": {
    "kind": "anchor",
    "name": "NOAA Atlantic Oceanographic and Meteorological Laboratory",
    "near": "miami",
    "provenance": "AUTHORED",
    "source": "the U.S. federal government's hurricane and ocean research laboratory on Virginia Key",
    "blurb": "The U.S. federal government's hurricane and ocean research laboratory on Virginia Key, part of NOAA.",
    "km": 4.6,
    "bearing_deg": 139.1,
    "blurb_provenance": "authored from public record, the same tier as the coordinate itself"
   }
  },
  {
   "type": "Feature",
   "geometry": {
    "type": "Point",
    "coordinates": [
     -80.2762,
     25.7171
    ]
   },
   "properties": {
    "kind": "anchor",
    "name": "University of Miami",
    "near": "miami",
    "provenance": "AUTHORED",
    "source": "the private research university\u2019s Coral Gables campus",
    "blurb": "Private research university in Coral Gables, Florida, with schools of engineering, architecture and marine science.",
    "km": 9.8,
    "bearing_deg": 239.6,
    "blurb_provenance": "authored from public record, the same tier as the coordinate itself"
   }
  },
  {
   "type": "Feature",
   "geometry": {
    "type": "Point",
    "coordinates": [
     -80.1937,
     25.7745
    ]
   },
   "properties": {
    "kind": "anchor",
    "name": "Miami Dade College",
    "near": "miami",
    "provenance": "AUTHORED",
    "source": "the community-college system's Wolfson Campus downtown, with real career-technical and trades programs",
    "blurb": "A large public community-college system with real career-technical and trades programs across Miami-Dade County.",
    "km": 1.4,
    "bearing_deg": 352.4,
    "blurb_provenance": "authored from public record, the same tier as the coordinate itself"
   }
  },
  {
   "type": "Feature",
   "geometry": {
    "type": "LineString",
    "coordinates": [
     [
      -122.3705,
      37.8235
     ],
     [
      -122.3674,
      37.8229
     ],
     [
      -122.3643,
      37.8223
     ],
     [
      -122.3612,
      37.8217
     ],
     [
      -122.3581,
      37.8211
     ],
     [
      -122.355,
      37.8205
     ],
     [
      -122.3519,
      37.8199
     ],
     [
      -122.3488,
      37.8193
     ],
     [
      -122.3457,
      37.8187
     ],
     [
      -122.3426,
      37.8181
     ],
     [
      -122.3395,
      37.8175
     ],
     [
      -122.3364,
      37.8169
     ],
     [
      -122.3333,
      37.8163
     ],
     [
      -122.3302,
      37.8158
     ],
     [
      -122.327,
      37.8152
     ],
     [
      -122.3239,
      37.8146
     ],
     [
      -122.3208,
      37.814
     ],
     [
      -122.3177,
      37.8134
     ],
     [
      -122.3146,
      37.8128
     ],
     [
      -122.3115,
      37.8122
     ],
     [
      -122.3084,
      37.8116
     ],
     [
      -122.3053,
      37.811
     ],
     [
      -122.3022,
      37.8104
     ],
     [
      -122.2991,
      37.8098
     ],
     [
      -122.296,
      37.8092
     ],
     [
      -122.2929,
      37.8086
     ],
     [
      -122.2898,
      37.808
     ],
     [
      -122.2867,
      37.8074
     ],
     [
      -122.2836,
      37.8068
     ],
     [
      -122.2805,
      37.8062
     ],
     [
      -122.2774,
      37.8056
     ],
     [
      -122.2743,
      37.805
     ],
     [
      -122.2712,
      37.8044
     ]
    ]
   },
   "properties": {
    "kind": "route",
    "from": "treasure-island",
    "to": "oakland",
    "km": 9.0,
    "bearing_deg": 103.7,
    "provenance": "DERIVED",
    "source": "great-circle between the campus records"
   }
  },
  {
   "type": "Feature",
   "geometry": {
    "type": "LineString",
    "coordinates": [
     [
      -122.3705,
      37.8235
     ],
     [
      -121.2803,
      37.7165
     ],
     [
      -120.1934,
      37.5995
     ],
     [
      -119.1101,
      37.4725
     ],
     [
      -118.0306,
      37.3357
     ],
     [
      -116.9551,
      37.1891
     ],
     [
      -115.8839,
      37.0328
     ],
     [
      -114.8173,
      36.867
     ],
     [
      -113.7555,
      36.6916
     ],
     [
      -112.6986,
      36.5069
     ],
     [
      -111.6468,
      36.3129
     ],
     [
      -110.6004,
      36.1097
     ],
     [
      -109.5595,
      35.8975
     ],
     [
      -108.5243,
      35.6763
     ],
     [
      -107.495,
      35.4464
     ],
     [
      -106.4716,
      35.2077
     ],
     [
      -105.4543,
      34.9605
     ],
     [
      -104.4432,
      34.7048
     ],
     [
      -103.4385,
      34.4409
     ],
     [
      -102.4402,
      34.1688
     ],
     [
      -101.4484,
      33.8887
     ],
     [
      -100.4632,
      33.6006
     ],
     [
      -99.4846,
      33.3048
     ],
     [
      -98.5127,
      33.0014
     ],
     [
      -97.5476,
      32.6905
     ],
     [
      -96.5893,
      32.3723
     ],
     [
      -95.6377,
      32.0469
     ],
     [
      -94.693,
      31.7144
     ],
     [
      -93.7551,
      31.375
     ],
     [
      -92.824,
      31.0289
     ],
     [
      -91.8997,
      30.6761
     ],
     [
      -90.9822,
      30.3168
     ],
     [
      -90.0715,
      29.9511
     ]
    ]
   },
   "properties": {
    "kind": "route",
    "from": "treasure-island",
    "to": "new-orleans",
    "km": 3089.9,
    "bearing_deg": 96.7,
    "provenance": "DERIVED",
    "source": "great-circle between the campus records"
   }
  },
  {
   "type": "Feature",
   "geometry": {
    "type": "LineString",
    "coordinates": [
     [
      -122.3705,
      37.8235
     ],
     [
      -121.453,
      37.6684
     ],
     [
      -120.5393,
      37.5062
     ],
     [
      -119.6297,
      37.337
     ],
     [
      -118.7243,
      37.1609
     ],
     [
      -117.8232,
      36.9779
     ],
     [
      -116.9265,
      36.7882
     ],
     [
      -116.0343,
      36.5917
     ],
     [
      -115.1467,
      36.3886
     ],
     [
      -114.2638,
      36.179
     ],
     [
      -113.3857,
      35.963
     ],
     [
      -112.5124,
      35.7406
     ],
     [
      -111.6441,
      35.5119
     ],
     [
      -110.7808,
      35.277
     ],
     [
      -109.9225,
      35.0361
     ],
     [
      -109.0693,
      34.7891
     ],
     [
      -108.2213,
      34.5362
     ],
     [
      -107.3785,
      34.2775
     ],
     [
      -106.541,
      34.013
     ],
     [
      -105.7086,
      33.7429
     ],
     [
      -104.8816,
      33.4673
     ],
     [
      -104.0598,
      33.1862
     ],
     [
      -103.2434,
      32.8997
     ],
     [
      -102.4323,
      32.608
     ],
     [
      -101.6265,
      32.3111
     ],
     [
      -100.8259,
      32.0091
     ],
     [
      -100.0307,
      31.7021
     ],
     [
      -99.2408,
      31.3902
     ],
     [
      -98.4562,
      31.0735
     ],
     [
      -97.6768,
      30.7521
     ],
     [
      -96.9026,
      30.426
     ],
     [
      -96.1336,
      30.0954
     ],
     [
      -95.3698,
      29.7604
     ]
    ]
   },
   "properties": {
    "kind": "route",
    "from": "treasure-island",
    "to": "houston",
    "km": 2639.9,
    "bearing_deg": 101.8,
    "provenance": "DERIVED",
    "source": "great-circle between the campus records"
   }
  },
  {
   "type": "Feature",
   "geometry": {
    "type": "LineString",
    "coordinates": [
     [
      -122.3705,
      37.8235
     ],
     [
      -121.369,
      38.1018
     ],
     [
      -120.3599,
      38.3715
     ],
     [
      -119.3434,
      38.6325
     ],
     [
      -118.3196,
      38.8847
     ],
     [
      -117.2886,
      39.1278
     ],
     [
      -116.2506,
      39.3618
     ],
     [
      -115.2058,
      39.5865
     ],
     [
      -114.1543,
      39.8018
     ],
     [
      -113.0964,
      40.0076
     ],
     [
      -112.0322,
      40.2036
     ],
     [
      -110.962,
      40.3899
     ],
     [
      -109.886,
      40.5663
     ],
     [
      -108.8046,
      40.7326
     ],
     [
      -107.7178,
      40.8888
     ],
     [
      -106.6261,
      41.0347
     ],
     [
      -105.5297,
      41.1703
     ],
     [
      -104.4289,
      41.2954
     ],
     [
      -103.3241,
      41.4101
     ],
     [
      -102.2155,
      41.5141
     ],
     [
      -101.1036,
      41.6074
     ],
     [
      -99.9886,
      41.69
     ],
     [
      -98.871,
      41.7618
     ],
     [
      -97.751,
      41.8228
     ],
     [
      -96.6291,
      41.8728
     ],
     [
      -95.5056,
      41.9119
     ],
     [
      -94.381,
      41.94
     ],
     [
      -93.2555,
      41.9572
     ],
     [
      -92.1296,
      41.9634
     ],
     [
      -91.0037,
      41.9585
     ],
     [
      -89.8782,
      41.9427
     ],
     [
      -88.7534,
      41.9159
     ],
     [
      -87.6298,
      41.8781
     ]
    ]
   },
   "properties": {
    "kind": "route",
    "from": "treasure-island",
    "to": "chicago",
    "km": 2979.0,
    "bearing_deg": 70.3,
    "provenance": "DERIVED",
    "source": "great-circle between the campus records"
   }
  },
  {
   "type": "Feature",
   "geometry": {
    "type": "LineString",
    "coordinates": [
     [
      -122.3705,
      37.8235
     ],
     [
      -122.3695,
      38.1292
     ],
     [
      -122.3684,
      38.4349
     ],
     [
      -122.3674,
      38.7406
     ],
     [
      -122.3663,
      39.0463
     ],
     [
      -122.3652,
      39.352
     ],
     [
      -122.3642,
      39.6578
     ],
     [
      -122.3631,
      39.9635
     ],
     [
      -122.362,
      40.2692
     ],
     [
      -122.3609,
      40.5749
     ],
     [
      -122.3598,
      40.8806
     ],
     [
      -122.3586,
      41.1863
     ],
     [
      -122.3575,
      41.492
     ],
     [
      -122.3563,
      41.7977
     ],
     [
      -122.3552,
      42.1034
     ],
     [
      -122.354,
      42.4091
     ],
     [
      -122.3528,
      42.7149
     ],
     [
      -122.3516,
      43.0206
     ],
     [
      -122.3504,
      43.3263
     ],
     [
      -122.3492,
      43.632
     ],
     [
      -122.348,
      43.9377
     ],
     [
      -122.3467,
      44.2434
     ],
     [
      -122.3455,
      44.5491
     ],
     [
      -122.3442,
      44.8548
     ],
     [
      -122.3429,
      45.1605
     ],
     [
      -122.3416,
      45.4662
     ],
     [
      -122.3403,
      45.7719
     ],
     [
      -122.339,
      46.0777
     ],
     [
      -122.3376,
      46.3834
     ],
     [
      -122.3363,
      46.6891
     ],
     [
      -122.3349,
      46.9948
     ],
     [
      -122.3335,
      47.3005
     ],
     [
      -122.3321,
      47.6062
     ]
    ]
   },
   "properties": {
    "kind": "route",
    "from": "treasure-island",
    "to": "seattle",
    "km": 1087.8,
    "bearing_deg": 0.2,
    "provenance": "DERIVED",
    "source": "great-circle between the campus records"
   }
  },
  {
   "type": "Feature",
   "geometry": {
    "type": "LineString",
    "coordinates": [
     [
      -122.3705,
      37.8235
     ],
     [
      -121.1371,
      38.134
     ],
     [
      -119.8934,
      38.4316
     ],
     [
      -118.6397,
      38.7158
     ],
     [
      -117.3761,
      38.9866
     ],
     [
      -116.1031,
      39.2437
     ],
     [
      -114.821,
      39.4868
     ],
     [
      -113.5302,
      39.7157
     ],
     [
      -112.2311,
      39.9302
     ],
     [
      -110.924,
      40.1302
     ],
     [
      -109.6095,
      40.3154
     ],
     [
      -108.2881,
      40.4856
     ],
     [
      -106.9603,
      40.6407
     ],
     [
      -105.6266,
      40.7805
     ],
     [
      -104.2876,
      40.9049
     ],
     [
      -102.9438,
      41.0137
     ],
     [
      -101.5959,
      41.1069
     ],
     [
      -100.2446,
      41.1844
     ],
     [
      -98.8903,
      41.246
     ],
     [
      -97.5338,
      41.2917
     ],
     [
      -96.1758,
      41.3215
     ],
     [
      -94.8168,
      41.3353
     ],
     [
      -93.4576,
      41.3331
     ],
     [
      -92.0988,
      41.3149
     ],
     [
      -90.7411,
      41.2808
     ],
     [
      -89.3852,
      41.2307
     ],
     [
      -88.0316,
      41.1648
     ],
     [
      -86.6811,
      41.083
     ],
     [
      -85.3343,
      40.9856
     ],
     [
      -83.9918,
      40.8724
     ],
     [
      -82.6542,
      40.7438
     ],
     [
      -81.322,
      40.5998
     ],
     [
      -79.9959,
      40.4406
     ]
    ]
   },
   "properties": {
    "kind": "route",
    "from": "treasure-island",
    "to": "pittsburgh",
    "km": 3631.5,
    "bearing_deg": 71.9,
    "provenance": "DERIVED",
    "source": "great-circle between the campus records"
   }
  },
  {
   "type": "Feature",
   "geometry": {
    "type": "LineString",
    "coordinates": [
     [
      -122.3705,
      37.8235
     ],
     [
      -121.8442,
      37.9217
     ],
     [
      -121.3164,
      38.0175
     ],
     [
      -120.7874,
      38.1109
     ],
     [
      -120.2569,
      38.202
     ],
     [
      -119.7252,
      38.2907
     ],
     [
      -119.1922,
      38.377
     ],
     [
      -118.6579,
      38.4608
     ],
     [
      -118.1224,
      38.5423
     ],
     [
      -117.5857,
      38.6213
     ],
     [
      -117.0479,
      38.6978
     ],
     [
      -116.5089,
      38.7718
     ],
     [
      -115.9688,
      38.8434
     ],
     [
      -115.4276,
      38.9125
     ],
     [
      -114.8854,
      38.9791
     ],
     [
      -114.3422,
      39.0432
     ],
     [
      -113.798,
      39.1047
     ],
     [
      -113.2529,
      39.1637
     ],
     [
      -112.707,
      39.2202
     ],
     [
      -112.1601,
      39.2741
     ],
     [
      -111.6124,
      39.3254
     ],
     [
      -111.064,
      39.3742
     ],
     [
      -110.5148,
      39.4204
     ],
     [
      -109.9648,
      39.4641
     ],
     [
      -109.4143,
      39.5051
     ],
     [
      -108.863,
      39.5435
     ],
     [
      -108.3112,
      39.5793
     ],
     [
      -107.7589,
      39.6125
     ],
     [
      -107.206,
      39.6431
     ],
     [
      -106.6527,
      39.6711
     ],
     [
      -106.0989,
      39.6964
     ],
     [
      -105.5448,
      39.7191
     ],
     [
      -104.9903,
      39.7392
     ]
    ]
   },
   "properties": {
    "kind": "route",
    "from": "treasure-island",
    "to": "denver",
    "km": 1519.1,
    "bearing_deg": 76.5,
    "provenance": "DERIVED",
    "source": "great-circle between the campus records"
   }
  },
  {
   "type": "Feature",
   "geometry": {
    "type": "LineString",
    "coordinates": [
     [
      -122.3705,
      37.8235
     ],
     [
      -120.8996,
      37.6874
     ],
     [
      -119.4345,
      37.5331
     ],
     [
      -117.9758,
      37.3608
     ],
     [
      -116.5242,
      37.1706
     ],
     [
      -115.0801,
      36.9629
     ],
     [
      -113.6443,
      36.7377
     ],
     [
      -112.2171,
      36.4954
     ],
     [
      -110.7992,
      36.2362
     ],
     [
      -109.3909,
      35.9604
     ],
     [
      -107.9927,
      35.6683
     ],
     [
      -106.605,
      35.3601
     ],
     [
      -105.2281,
      35.0362
     ],
     [
      -103.8624,
      34.6969
     ],
     [
      -102.508,
      34.3424
     ],
     [
      -101.1653,
      33.9732
     ],
     [
      -99.8344,
      33.5895
     ],
     [
      -98.5156,
      33.1916
     ],
     [
      -97.2088,
      32.78
     ],
     [
      -95.9143,
      32.355
     ],
     [
      -94.6321,
      31.9169
     ],
     [
      -93.3622,
      31.466
     ],
     [
      -92.1046,
      31.0027
     ],
     [
      -90.8594,
      30.5273
     ],
     [
      -89.6264,
      30.0402
     ],
     [
      -88.4057,
      29.5418
     ],
     [
      -87.197,
      29.0323
     ],
     [
      -86.0004,
      28.512
     ],
     [
      -84.8156,
      27.9814
     ],
     [
      -83.6425,
      27.4408
     ],
     [
      -82.481,
      26.8904
     ],
     [
      -81.3308,
      26.3306
     ],
     [
      -80.1918,
      25.7617
     ]
    ]
   },
   "properties": {
    "kind": "route",
    "from": "treasure-island",
    "to": "miami",
    "km": 4166.1,
    "bearing_deg": 96.2,
    "provenance": "DERIVED",
    "source": "great-circle between the campus records"
   }
  },
  {
   "type": "Feature",
   "geometry": {
    "type": "LineString",
    "coordinates": [
     [
      -122.2712,
      37.8044
     ],
     [
      -121.1845,
      37.6971
     ],
     [
      -120.1012,
      37.5798
     ],
     [
      -119.0213,
      37.4527
     ],
     [
      -117.9453,
      37.3157
     ],
     [
      -116.8733,
      37.1691
     ],
     [
      -115.8057,
      37.0129
     ],
     [
      -114.7425,
      36.8471
     ],
     [
      -113.6841,
      36.6719
     ],
     [
      -112.6306,
      36.4874
     ],
     [
      -111.5822,
      36.2936
     ],
     [
      -110.5391,
      36.0908
     ],
     [
      -109.5016,
      35.879
     ],
     [
      -108.4697,
      35.6582
     ],
     [
      -107.4435,
      35.4288
     ],
     [
      -106.4234,
      35.1907
     ],
     [
      -105.4093,
      34.9441
     ],
     [
      -104.4013,
      34.6891
     ],
     [
      -103.3997,
      34.4259
     ],
     [
      -102.4044,
      34.1546
     ],
     [
      -101.4157,
      33.8753
     ],
     [
      -100.4334,
      33.5881
     ],
     [
      -99.4578,
      33.2932
     ],
     [
      -98.4888,
      32.9908
     ],
     [
      -97.5265,
      32.6809
     ],
     [
      -96.571,
      32.3638
     ],
     [
      -95.6222,
      32.0394
     ],
     [
      -94.6801,
      31.7081
     ],
     [
      -93.7449,
      31.3699
     ],
     [
      -92.8164,
      31.025
     ],
     [
      -91.8947,
      30.6734
     ],
     [
      -90.9797,
      30.3154
     ],
     [
      -90.0715,
      29.9511
     ]
    ]
   },
   "properties": {
    "kind": "route",
    "from": "oakland",
    "to": "new-orleans",
    "km": 3081.0,
    "bearing_deg": 96.8,
    "provenance": "DERIVED",
    "source": "great-circle between the campus records"
   }
  },
  {
   "type": "Feature",
   "geometry": {
    "type": "LineString",
    "coordinates": [
     [
      -122.2712,
      37.8044
     ],
     [
      -121.3572,
      37.6491
     ],
     [
      -120.4471,
      37.4869
     ],
     [
      -119.541,
      37.3176
     ],
     [
      -118.6391,
      37.1415
     ],
     [
      -117.7414,
      36.9586
     ],
     [
      -116.8482,
      36.769
     ],
     [
      -115.9594,
      36.5727
     ],
     [
      -115.0752,
      36.3699
     ],
     [
      -114.1957,
      36.1605
     ],
     [
      -113.3209,
      35.9448
     ],
     [
      -112.4509,
      35.7228
     ],
     [
      -111.5859,
      35.4945
     ],
     [
      -110.7258,
      35.2601
     ],
     [
      -109.8708,
      35.0197
     ],
     [
      -109.0208,
      34.7733
     ],
     [
      -108.1759,
      34.521
     ],
     [
      -107.3362,
      34.263
     ],
     [
      -106.5017,
      33.9992
     ],
     [
      -105.6725,
      33.7299
     ],
     [
      -104.8484,
      33.455
     ],
     [
      -104.0296,
      33.1747
     ],
     [
      -103.2161,
      32.8891
     ],
     [
      -102.4079,
      32.5983
     ],
     [
      -101.6049,
      32.3023
     ],
     [
      -100.8073,
      32.0013
     ],
     [
      -100.0148,
      31.6953
     ],
     [
      -99.2277,
      31.3845
     ],
     [
      -98.4457,
      31.0689
     ],
     [
      -97.669,
      30.7485
     ],
     [
      -96.8974,
      30.4236
     ],
     [
      -96.1311,
      30.0942
     ],
     [
      -95.3698,
      29.7604
     ]
    ]
   },
   "properties": {
    "kind": "route",
    "from": "oakland",
    "to": "houston",
    "km": 2631.0,
    "bearing_deg": 101.8,
    "provenance": "DERIVED",
    "source": "great-circle between the campus records"
   }
  },
  {
   "type": "Feature",
   "geometry": {
    "type": "LineString",
    "coordinates": [
     [
      -122.2712,
      37.8044
     ],
     [
      -121.2726,
      38.0824
     ],
     [
      -120.2665,
      38.3518
     ],
     [
      -119.253,
      38.6126
     ],
     [
      -118.2323,
      38.8646
     ],
     [
      -117.2044,
      39.1077
     ],
     [
      -116.1695,
      39.3416
     ],
     [
      -115.1279,
      39.5664
     ],
     [
      -114.0796,
      39.7817
     ],
     [
      -113.0248,
      39.9876
     ],
     [
      -111.9638,
      40.1839
     ],
     [
      -110.8969,
      40.3704
     ],
     [
      -109.8241,
      40.5471
     ],
     [
      -108.7459,
      40.7138
     ],
     [
      -107.6624,
      40.8704
     ],
     [
      -106.5739,
      41.0168
     ],
     [
      -105.4807,
      41.153
     ],
     [
      -104.3832,
      41.2788
     ],
     [
      -103.2816,
      41.3941
     ],
     [
      -102.1763,
      41.4988
     ],
     [
      -101.0675,
      41.593
     ],
     [
      -99.9558,
      41.6765
     ],
     [
      -98.8413,
      41.7492
     ],
     [
      -97.7245,
      41.8111
     ],
     [
      -96.6057,
      41.8622
     ],
     [
      -95.4853,
      41.9024
     ],
     [
      -94.3637,
      41.9318
     ],
     [
      -93.2412,
      41.9502
     ],
     [
      -92.1183,
      41.9576
     ],
     [
      -90.9953,
      41.9541
     ],
     [
      -89.8726,
      41.9397
     ],
     [
      -88.7507,
      41.9144
     ],
     [
      -87.6298,
      41.8781
     ]
    ]
   },
   "properties": {
    "kind": "route",
    "from": "oakland",
    "to": "chicago",
    "km": 2971.5,
    "bearing_deg": 70.3,
    "provenance": "DERIVED",
    "source": "great-circle between the campus records"
   }
  },
  {
   "type": "Feature",
   "geometry": {
    "type": "LineString",
    "coordinates": [
     [
      -122.2712,
      37.8044
     ],
     [
      -122.2728,
      38.1107
     ],
     [
      -122.2745,
      38.417
     ],
     [
      -122.2762,
      38.7233
     ],
     [
      -122.2778,
      39.0296
     ],
     [
      -122.2795,
      39.3359
     ],
     [
      -122.2812,
      39.6422
     ],
     [
      -122.283,
      39.9485
     ],
     [
      -122.2847,
      40.2549
     ],
     [
      -122.2865,
      40.5612
     ],
     [
      -122.2882,
      40.8675
     ],
     [
      -122.29,
      41.1738
     ],
     [
      -122.2918,
      41.4801
     ],
     [
      -122.2937,
      41.7864
     ],
     [
      -122.2955,
      42.0927
     ],
     [
      -122.2974,
      42.399
     ],
     [
      -122.2992,
      42.7053
     ],
     [
      -122.3011,
      43.0116
     ],
     [
      -122.3031,
      43.3179
     ],
     [
      -122.305,
      43.6242
     ],
     [
      -122.3069,
      43.9305
     ],
     [
      -122.3089,
      44.2368
     ],
     [
      -122.3109,
      44.5431
     ],
     [
      -122.3129,
      44.8494
     ],
     [
      -122.315,
      45.1558
     ],
     [
      -122.317,
      45.4621
     ],
     [
      -122.3191,
      45.7684
     ],
     [
      -122.3212,
      46.0747
     ],
     [
      -122.3233,
      46.381
     ],
     [
      -122.3255,
      46.6873
     ],
     [
      -122.3277,
      46.9936
     ],
     [
      -122.3299,
      47.2999
     ],
     [
      -122.3321,
      47.6062
     ]
    ]
   },
   "properties": {
    "kind": "route",
    "from": "oakland",
    "to": "seattle",
    "km": 1089.9,
    "bearing_deg": 359.8,
    "provenance": "DERIVED",
    "source": "great-circle between the campus records"
   }
  },
  {
   "type": "Feature",
   "geometry": {
    "type": "LineString",
    "coordinates": [
     [
      -122.2712,
      37.8044
     ],
     [
      -121.0408,
      38.1144
     ],
     [
      -119.8001,
      38.4114
     ],
     [
      -118.5494,
      38.6953
     ],
     [
      -117.289,
      38.9658
     ],
     [
      -116.0191,
      39.2225
     ],
     [
      -114.7402,
      39.4654
     ],
     [
      -113.4526,
      39.6942
     ],
     [
      -112.1567,
      39.9087
     ],
     [
      -110.8529,
      40.1087
     ],
     [
      -109.5417,
      40.294
     ],
     [
      -108.2236,
      40.4643
     ],
     [
      -106.8991,
      40.6197
     ],
     [
      -105.5688,
      40.7598
     ],
     [
      -104.2331,
      40.8846
     ],
     [
      -102.8927,
      40.994
     ],
     [
      -101.5481,
      41.0877
     ],
     [
      -100.2,
      41.1658
     ],
     [
      -98.8491,
      41.2282
     ],
     [
      -97.4958,
      41.2747
     ],
     [
      -96.141,
      41.3053
     ],
     [
      -94.7852,
      41.3201
     ],
     [
      -93.4292,
      41.3189
     ],
     [
      -92.0735,
      41.3019
     ],
     [
      -90.7189,
      41.2689
     ],
     [
      -89.366,
      41.2201
     ],
     [
      -88.0154,
      41.1555
     ],
     [
      -86.6678,
      41.0751
     ],
     [
      -85.3238,
      40.9791
     ],
     [
      -83.984,
      40.8675
     ],
     [
      -82.6491,
      40.7405
     ],
     [
      -81.3195,
      40.5981
     ],
     [
      -79.9959,
      40.4406
     ]
    ]
   },
   "properties": {
    "kind": "route",
    "from": "oakland",
    "to": "pittsburgh",
    "km": 3623.8,
    "bearing_deg": 71.9,
    "provenance": "DERIVED",
    "source": "great-circle between the campus records"
   }
  },
  {
   "type": "Feature",
   "geometry": {
    "type": "LineString",
    "coordinates": [
     [
      -122.2712,
      37.8044
     ],
     [
      -121.748,
      37.9027
     ],
     [
      -121.2234,
      37.9987
     ],
     [
      -120.6974,
      38.0924
     ],
     [
      -120.1701,
      38.1837
     ],
     [
      -119.6415,
      38.2726
     ],
     [
      -119.1116,
      38.3592
     ],
     [
      -118.5805,
      38.4434
     ],
     [
      -118.0481,
      38.5252
     ],
     [
      -117.5145,
      38.6045
     ],
     [
      -116.9798,
      38.6815
     ],
     [
      -116.444,
      38.756
     ],
     [
      -115.907,
      38.828
     ],
     [
      -115.369,
      38.8976
     ],
     [
      -114.8299,
      38.9647
     ],
     [
      -114.2899,
      39.0293
     ],
     [
      -113.7488,
      39.0914
     ],
     [
      -113.2069,
      39.151
     ],
     [
      -112.664,
      39.2082
     ],
     [
      -112.1203,
      39.2627
     ],
     [
      -111.5757,
      39.3148
     ],
     [
      -111.0304,
      39.3643
     ],
     [
      -110.4843,
      39.4113
     ],
     [
      -109.9374,
      39.4557
     ],
     [
      -109.39,
      39.4975
     ],
     [
      -108.8418,
      39.5368
     ],
     [
      -108.2931,
      39.5735
     ],
     [
      -107.7438,
      39.6076
     ],
     [
      -107.194,
      39.6391
     ],
     [
      -106.6437,
      39.668
     ],
     [
      -106.0929,
      39.6944
     ],
     [
      -105.5418,
      39.7181
     ],
     [
      -104.9903,
      39.7392
     ]
    ]
   },
   "properties": {
    "kind": "route",
    "from": "oakland",
    "to": "denver",
    "km": 1511.1,
    "bearing_deg": 76.5,
    "provenance": "DERIVED",
    "source": "great-circle between the campus records"
   }
  },
  {
   "type": "Feature",
   "geometry": {
    "type": "LineString",
    "coordinates": [
     [
      -122.2712,
      37.8044
     ],
     [
      -120.804,
      37.6677
     ],
     [
      -119.3426,
      37.5128
     ],
     [
      -117.8876,
      37.34
     ],
     [
      -116.4395,
      37.1495
     ],
     [
      -114.9991,
      36.9415
     ],
     [
      -113.5669,
      36.7162
     ],
     [
      -112.1434,
      36.4738
     ],
     [
      -110.729,
      36.2146
     ],
     [
      -109.3243,
      35.9389
     ],
     [
      -107.9296,
      35.647
     ],
     [
      -106.5454,
      35.339
     ],
     [
      -105.1719,
      35.0155
     ],
     [
      -103.8095,
      34.6766
     ],
     [
      -102.4585,
      34.3226
     ],
     [
      -101.119,
      33.9539
     ],
     [
      -99.7914,
      33.5709
     ],
     [
      -98.4756,
      33.1738
     ],
     [
      -97.172,
      32.763
     ],
     [
      -95.8805,
      32.3388
     ],
     [
      -94.6012,
      31.9016
     ],
     [
      -93.3342,
      31.4517
     ],
     [
      -92.0795,
      30.9895
     ],
     [
      -90.8371,
      30.5152
     ],
     [
      -89.6068,
      30.0293
     ],
     [
      -88.3887,
      29.532
     ],
     [
      -87.1827,
      29.0238
     ],
     [
      -85.9886,
      28.5049
     ],
     [
      -84.8063,
      27.9756
     ],
     [
      -83.6356,
      27.4363
     ],
     [
      -82.4764,
      26.8874
     ],
     [
      -81.3286,
      26.3291
     ],
     [
      -80.1918,
      25.7617
     ]
    ]
   },
   "properties": {
    "kind": "route",
    "from": "oakland",
    "to": "miami",
    "km": 4157.2,
    "bearing_deg": 96.3,
    "provenance": "DERIVED",
    "source": "great-circle between the campus records"
   }
  },
  {
   "type": "Feature",
   "geometry": {
    "type": "LineString",
    "coordinates": [
     [
      -90.0715,
      29.9511
     ],
     [
      -90.2373,
      29.9483
     ],
     [
      -90.4031,
      29.9454
     ],
     [
      -90.5689,
      29.9422
     ],
     [
      -90.7347,
      29.9389
     ],
     [
      -90.9005,
      29.9353
     ],
     [
      -91.0663,
      29.9315
     ],
     [
      -91.2321,
      29.9275
     ],
     [
      -91.3978,
      29.9233
     ],
     [
      -91.5635,
      29.9189
     ],
     [
      -91.7292,
      29.9143
     ],
     [
      -91.8949,
      29.9094
     ],
     [
      -92.0606,
      29.9044
     ],
     [
      -92.2263,
      29.8992
     ],
     [
      -92.3919,
      29.8937
     ],
     [
      -92.5576,
      29.8881
     ],
     [
      -92.7232,
      29.8822
     ],
     [
      -92.8888,
      29.8761
     ],
     [
      -93.0543,
      29.8699
     ],
     [
      -93.2199,
      29.8634
     ],
     [
      -93.3854,
      29.8567
     ],
     [
      -93.5509,
      29.8498
     ],
     [
      -93.7164,
      29.8427
     ],
     [
      -93.8819,
      29.8354
     ],
     [
      -94.0473,
      29.8279
     ],
     [
      -94.2127,
      29.8202
     ],
     [
      -94.3781,
      29.8123
     ],
     [
      -94.5434,
      29.8041
     ],
     [
      -94.7088,
      29.7958
     ],
     [
      -94.8741,
      29.7873
     ],
     [
      -95.0393,
      29.7785
     ],
     [
      -95.2046,
      29.7696
     ],
     [
      -95.3698,
      29.7604
     ]
    ]
   },
   "properties": {
    "kind": "route",
    "from": "new-orleans",
    "to": "houston",
    "km": 511.3,
    "bearing_deg": 268.9,
    "provenance": "DERIVED",
    "source": "great-circle between the campus records"
   }
  },
  {
   "type": "Feature",
   "geometry": {
    "type": "LineString",
    "coordinates": [
     [
      -90.0715,
      29.9511
     ],
     [
      -90.0052,
      30.3245
     ],
     [
      -89.9384,
      30.6978
     ],
     [
      -89.8711,
      31.0712
     ],
     [
      -89.8033,
      31.4444
     ],
     [
      -89.7349,
      31.8177
     ],
     [
      -89.6659,
      32.1909
     ],
     [
      -89.5964,
      32.5641
     ],
     [
      -89.5263,
      32.9372
     ],
     [
      -89.4556,
      33.3103
     ],
     [
      -89.3843,
      33.6833
     ],
     [
      -89.3124,
      34.0563
     ],
     [
      -89.2399,
      34.4293
     ],
     [
      -89.1667,
      34.8022
     ],
     [
      -89.0928,
      35.1751
     ],
     [
      -89.0183,
      35.548
     ],
     [
      -88.943,
      35.9207
     ],
     [
      -88.8671,
      36.2935
     ],
     [
      -88.7904,
      36.6662
     ],
     [
      -88.713,
      37.0388
     ],
     [
      -88.6348,
      37.4114
     ],
     [
      -88.5558,
      37.784
     ],
     [
      -88.476,
      38.1564
     ],
     [
      -88.3954,
      38.5289
     ],
     [
      -88.314,
      38.9013
     ],
     [
      -88.2317,
      39.2736
     ],
     [
      -88.1485,
      39.6458
     ],
     [
      -88.0644,
      40.018
     ],
     [
      -87.9795,
      40.3902
     ],
     [
      -87.8935,
      40.7623
     ],
     [
      -87.8066,
      41.1343
     ],
     [
      -87.7187,
      41.5062
     ],
     [
      -87.6298,
      41.8781
     ]
    ]
   },
   "properties": {
    "kind": "route",
    "from": "new-orleans",
    "to": "chicago",
    "km": 1344.2,
    "bearing_deg": 8.7,
    "provenance": "DERIVED",
    "source": "great-circle between the campus records"
   }
  },
  {
   "type": "Feature",
   "geometry": {
    "type": "LineString",
    "coordinates": [
     [
      -90.0715,
      29.9511
     ],
     [
      -90.8565,
      30.6157
     ],
     [
      -91.6523,
      31.2754
     ],
     [
      -92.4592,
      31.9302
     ],
     [
      -93.2777,
      32.5798
     ],
     [
      -94.1081,
      33.2241
     ],
     [
      -94.9508,
      33.8627
     ],
     [
      -95.8061,
      34.4956
     ],
     [
      -96.6744,
      35.1223
     ],
     [
      -97.5561,
      35.7428
     ],
     [
      -98.4516,
      36.3568
     ],
     [
      -99.3613,
      36.9639
     ],
     [
      -100.2855,
      37.5641
     ],
     [
      -101.2246,
      38.1568
     ],
     [
      -102.179,
      38.742
     ],
     [
      -103.1491,
      39.3193
     ],
     [
      -104.1352,
      39.8885
     ],
     [
      -105.1377,
      40.4491
     ],
     [
      -106.1569,
      41.0009
     ],
     [
      -107.1932,
      41.5436
     ],
     [
      -108.2469,
      42.0769
     ],
     [
      -109.3183,
      42.6003
     ],
     [
      -110.4076,
      43.1136
     ],
     [
      -111.5152,
      43.6164
     ],
     [
      -112.6412,
      44.1083
     ],
     [
      -113.786,
      44.5889
     ],
     [
      -114.9496,
      45.058
     ],
     [
      -116.1322,
      45.515
     ],
     [
      -117.3339,
      45.9597
     ],
     [
      -118.5547,
      46.3915
     ],
     [
      -119.7947,
      46.8101
     ],
     [
      -121.0539,
      47.2152
     ],
     [
      -122.3321,
      47.6062
     ]
    ]
   },
   "properties": {
    "kind": "route",
    "from": "new-orleans",
    "to": "seattle",
    "km": 3377.7,
    "bearing_deg": 314.6,
    "provenance": "DERIVED",
    "source": "great-circle between the campus records"
   }
  },
  {
   "type": "Feature",
   "geometry": {
    "type": "LineString",
    "coordinates": [
     [
      -90.0715,
      29.9511
     ],
     [
      -89.7929,
      30.2903
     ],
     [
      -89.5124,
      30.6289
     ],
     [
      -89.2299,
      30.967
     ],
     [
      -88.9454,
      31.3044
     ],
     [
      -88.6588,
      31.6411
     ],
     [
      -88.3702,
      31.9772
     ],
     [
      -88.0795,
      32.3127
     ],
     [
      -87.7866,
      32.6475
     ],
     [
      -87.4915,
      32.9816
     ],
     [
      -87.1941,
      33.315
     ],
     [
      -86.8945,
      33.6477
     ],
     [
      -86.5926,
      33.9797
     ],
     [
      -86.2883,
      34.3109
     ],
     [
      -85.9815,
      34.6413
     ],
     [
      -85.6724,
      34.971
     ],
     [
      -85.3607,
      35.2999
     ],
     [
      -85.0465,
      35.628
     ],
     [
      -84.7297,
      35.9553
     ],
     [
      -84.4103,
      36.2817
     ],
     [
      -84.0882,
      36.6073
     ],
     [
      -83.7634,
      36.932
     ],
     [
      -83.4357,
      37.2558
     ],
     [
      -83.1053,
      37.5787
     ],
     [
      -82.772,
      37.9007
     ],
     [
      -82.4358,
      38.2217
     ],
     [
      -82.0966,
      38.5417
     ],
     [
      -81.7543,
      38.8608
     ],
     [
      -81.409,
      39.1789
     ],
     [
      -81.0606,
      39.4959
     ],
     [
      -80.709,
      39.8119
     ],
     [
      -80.3541,
      40.1268
     ],
     [
      -79.9959,
      40.4406
     ]
    ]
   },
   "properties": {
    "kind": "route",
    "from": "new-orleans",
    "to": "pittsburgh",
    "km": 1480.6,
    "bearing_deg": 35.3,
    "provenance": "DERIVED",
    "source": "great-circle between the campus records"
   }
  },
  {
   "type": "Feature",
   "geometry": {
    "type": "LineString",
    "coordinates": [
     [
      -90.0715,
      29.9511
     ],
     [
      -90.4871,
      30.2821
     ],
     [
      -90.9055,
      30.6118
     ],
     [
      -91.3268,
      30.9401
     ],
     [
      -91.751,
      31.2671
     ],
     [
      -92.1781,
      31.5927
     ],
     [
      -92.6082,
      31.9168
     ],
     [
      -93.0413,
      32.2395
     ],
     [
      -93.4775,
      32.5607
     ],
     [
      -93.9169,
      32.8804
     ],
     [
      -94.3594,
      33.1985
     ],
     [
      -94.8051,
      33.515
     ],
     [
      -95.2541,
      33.83
     ],
     [
      -95.7064,
      34.1433
     ],
     [
      -96.1621,
      34.4549
     ],
     [
      -96.6212,
      34.7648
     ],
     [
      -97.0837,
      35.073
     ],
     [
      -97.5497,
      35.3794
     ],
     [
      -98.0193,
      35.684
     ],
     [
      -98.4925,
      35.9868
     ],
     [
      -98.9692,
      36.2877
     ],
     [
      -99.4497,
      36.5867
     ],
     [
      -99.9339,
      36.8838
     ],
     [
      -100.4219,
      37.1789
     ],
     [
      -100.9136,
      37.4719
     ],
     [
      -101.4093,
      37.7629
     ],
     [
      -101.9088,
      38.0518
     ],
     [
      -102.4123,
      38.3386
     ],
     [
      -102.9197,
      38.6232
     ],
     [
      -103.4312,
      38.9056
     ],
     [
      -103.9468,
      39.1858
     ],
     [
      -104.4665,
      39.4637
     ],
     [
      -104.9903,
      39.7392
     ]
    ]
   },
   "properties": {
    "kind": "route",
    "from": "new-orleans",
    "to": "denver",
    "km": 1738.9,
    "bearing_deg": 312.7,
    "provenance": "DERIVED",
    "source": "great-circle between the campus records"
   }
  },
  {
   "type": "Feature",
   "geometry": {
    "type": "LineString",
    "coordinates": [
     [
      -90.0715,
      29.9511
     ],
     [
      -89.751,
      29.8313
     ],
     [
      -89.4313,
      29.7107
     ],
     [
      -89.1124,
      29.5893
     ],
     [
      -88.7943,
      29.4672
     ],
     [
      -88.4769,
      29.3443
     ],
     [
      -88.1603,
      29.2207
     ],
     [
      -87.8444,
      29.0964
     ],
     [
      -87.5293,
      28.9713
     ],
     [
      -87.215,
      28.8454
     ],
     [
      -86.9014,
      28.7189
     ],
     [
      -86.5886,
      28.5916
     ],
     [
      -86.2766,
      28.4636
     ],
     [
      -85.9653,
      28.3349
     ],
     [
      -85.6547,
      28.2055
     ],
     [
      -85.345,
      28.0753
     ],
     [
      -85.0359,
      27.9445
     ],
     [
      -84.7276,
      27.813
     ],
     [
      -84.4201,
      27.6809
     ],
     [
      -84.1133,
      27.548
     ],
     [
      -83.8073,
      27.4145
     ],
     [
      -83.502,
      27.2803
     ],
     [
      -83.1974,
      27.1454
     ],
     [
      -82.8936,
      27.0099
     ],
     [
      -82.5905,
      26.8738
     ],
     [
      -82.2881,
      26.737
     ],
     [
      -81.9865,
      26.5995
     ],
     [
      -81.6856,
      26.4614
     ],
     [
      -81.3854,
      26.3227
     ],
     [
      -81.0859,
      26.1834
     ],
     [
      -80.7872,
      26.0434
     ],
     [
      -80.4891,
      25.9029
     ],
     [
      -80.1918,
      25.7617
     ]
    ]
   },
   "properties": {
    "kind": "route",
    "from": "new-orleans",
    "to": "miami",
    "km": 1076.6,
    "bearing_deg": 113.2,
    "provenance": "DERIVED",
    "source": "great-circle between the campus records"
   }
  },
  {
   "type": "Feature",
   "geometry": {
    "type": "LineString",
    "coordinates": [
     [
      -95.3698,
      29.7604
     ],
     [
      -95.1602,
      30.1458
     ],
     [
      -94.949,
      30.5308
     ],
     [
      -94.736,
      30.9154
     ],
     [
      -94.5214,
      31.2998
     ],
     [
      -94.305,
      31.6837
     ],
     [
      -94.0868,
      32.0673
     ],
     [
      -93.8668,
      32.4505
     ],
     [
      -93.6449,
      32.8334
     ],
     [
      -93.4211,
      33.2158
     ],
     [
      -93.1953,
      33.5978
     ],
     [
      -92.9675,
      33.9794
     ],
     [
      -92.7376,
      34.3606
     ],
     [
      -92.5057,
      34.7414
     ],
     [
      -92.2716,
      35.1217
     ],
     [
      -92.0353,
      35.5016
     ],
     [
      -91.7967,
      35.881
     ],
     [
      -91.5559,
      36.2599
     ],
     [
      -91.3127,
      36.6383
     ],
     [
      -91.0671,
      37.0163
     ],
     [
      -90.8191,
      37.3937
     ],
     [
      -90.5685,
      37.7706
     ],
     [
      -90.3154,
      38.147
     ],
     [
      -90.0597,
      38.5228
     ],
     [
      -89.8013,
      38.898
     ],
     [
      -89.5401,
      39.2727
     ],
     [
      -89.2762,
      39.6468
     ],
     [
      -89.0093,
      40.0203
     ],
     [
      -88.7396,
      40.3931
     ],
     [
      -88.4668,
      40.7654
     ],
     [
      -88.191,
      41.1369
     ],
     [
      -87.912,
      41.5079
     ],
     [
      -87.6298,
      41.8781
     ]
    ]
   },
   "properties": {
    "kind": "route",
    "from": "houston",
    "to": "chicago",
    "km": 1515.8,
    "bearing_deg": 25.2,
    "provenance": "DERIVED",
    "source": "great-circle between the campus records"
   }
  },
  {
   "type": "Feature",
   "geometry": {
    "type": "LineString",
    "coordinates": [
     [
      -95.3698,
      29.7604
     ],
     [
      -96.0291,
      30.3965
     ],
     [
      -96.697,
      31.0293
     ],
     [
      -97.3739,
      31.6586
     ],
     [
      -98.0599,
      32.2843
     ],
     [
      -98.7555,
      32.9062
     ],
     [
      -99.4608,
      33.5242
     ],
     [
      -100.1763,
      34.1382
     ],
     [
      -100.9022,
      34.748
     ],
     [
      -101.6389,
      35.3533
     ],
     [
      -102.3866,
      35.9542
     ],
     [
      -103.1458,
      36.5503
     ],
     [
      -103.9167,
      37.1415
     ],
     [
      -104.6997,
      37.7277
     ],
     [
      -105.4952,
      38.3086
     ],
     [
      -106.3034,
      38.8841
     ],
     [
      -107.1248,
      39.4539
     ],
     [
      -107.9596,
      40.0178
     ],
     [
      -108.8083,
      40.5756
     ],
     [
      -109.6712,
      41.1271
     ],
     [
      -110.5486,
      41.6721
     ],
     [
      -111.441,
      42.2103
     ],
     [
      -112.3485,
      42.7414
     ],
     [
      -113.2716,
      43.2653
     ],
     [
      -114.2107,
      43.7816
     ],
     [
      -115.1659,
      44.2901
     ],
     [
      -116.1378,
      44.7905
     ],
     [
      -117.1264,
      45.2825
     ],
     [
      -118.1322,
      45.7658
     ],
     [
      -119.1555,
      46.2401
     ],
     [
      -120.1964,
      46.7052
     ],
     [
      -121.2552,
      47.1607
     ],
     [
      -122.3321,
      47.6062
     ]
    ]
   },
   "properties": {
    "kind": "route",
    "from": "houston",
    "to": "seattle",
    "km": 3040.5,
    "bearing_deg": 318.3,
    "provenance": "DERIVED",
    "source": "great-circle between the campus records"
   }
  },
  {
   "type": "Feature",
   "geometry": {
    "type": "LineString",
    "coordinates": [
     [
      -95.3698,
      29.7604
     ],
     [
      -94.9463,
      30.1207
     ],
     [
      -94.5198,
      30.4796
     ],
     [
      -94.09,
      30.8372
     ],
     [
      -93.6571,
      31.1933
     ],
     [
      -93.2209,
      31.5479
     ],
     [
      -92.7814,
      31.9011
     ],
     [
      -92.3385,
      32.2527
     ],
     [
      -91.8922,
      32.6028
     ],
     [
      -91.4424,
      32.9512
     ],
     [
      -90.989,
      33.2981
     ],
     [
      -90.532,
      33.6433
     ],
     [
      -90.0714,
      33.9868
     ],
     [
      -89.607,
      34.3286
     ],
     [
      -89.1388,
      34.6686
     ],
     [
      -88.6668,
      35.0068
     ],
     [
      -88.1909,
      35.3431
     ],
     [
      -87.711,
      35.6776
     ],
     [
      -87.2271,
      36.0102
     ],
     [
      -86.7391,
      36.3407
     ],
     [
      -86.2469,
      36.6693
     ],
     [
      -85.7505,
      36.9959
     ],
     [
      -85.2499,
      37.3204
     ],
     [
      -84.7449,
      37.6427
     ],
     [
      -84.2356,
      37.9629
     ],
     [
      -83.7218,
      38.2808
     ],
     [
      -83.2035,
      38.5965
     ],
     [
      -82.6806,
      38.9099
     ],
     [
      -82.1531,
      39.2209
     ],
     [
      -81.621,
      39.5296
     ],
     [
      -81.0841,
      39.8358
     ],
     [
      -80.5424,
      40.1395
     ],
     [
      -79.9959,
      40.4406
     ]
    ]
   },
   "properties": {
    "kind": "route",
    "from": "houston",
    "to": "pittsburgh",
    "km": 1829.9,
    "bearing_deg": 45.4,
    "provenance": "DERIVED",
    "source": "great-circle between the campus records"
   }
  },
  {
   "type": "Feature",
   "geometry": {
    "type": "LineString",
    "coordinates": [
     [
      -95.3698,
      29.7604
     ],
     [
      -95.6379,
      30.0826
     ],
     [
      -95.9078,
      30.4043
     ],
     [
      -96.1794,
      30.7255
     ],
     [
      -96.4529,
      31.046
     ],
     [
      -96.7282,
      31.366
     ],
     [
      -97.0053,
      31.6854
     ],
     [
      -97.2844,
      32.0042
     ],
     [
      -97.5655,
      32.3224
     ],
     [
      -97.8485,
      32.64
     ],
     [
      -98.1335,
      32.9569
     ],
     [
      -98.4206,
      33.2731
     ],
     [
      -98.7098,
      33.5887
     ],
     [
      -99.0011,
      33.9036
     ],
     [
      -99.2945,
      34.2179
     ],
     [
      -99.5902,
      34.5314
     ],
     [
      -99.888,
      34.8442
     ],
     [
      -100.1882,
      35.1563
     ],
     [
      -100.4906,
      35.4676
     ],
     [
      -100.7954,
      35.7782
     ],
     [
      -101.1026,
      36.0879
     ],
     [
      -101.4122,
      36.3969
     ],
     [
      -101.7243,
      36.7051
     ],
     [
      -102.0389,
      37.0125
     ],
     [
      -102.3561,
      37.3191
     ],
     [
      -102.6758,
      37.6247
     ],
     [
      -102.9982,
      37.9296
     ],
     [
      -103.3232,
      38.2335
     ],
     [
      -103.651,
      38.5365
     ],
     [
      -103.9816,
      38.8386
     ],
     [
      -104.3149,
      39.1398
     ],
     [
      -104.6512,
      39.44
     ],
     [
      -104.9903,
      39.7392
     ]
    ]
   },
   "properties": {
    "kind": "route",
    "from": "houston",
    "to": "denver",
    "km": 1413.6,
    "bearing_deg": 324.3,
    "provenance": "DERIVED",
    "source": "great-circle between the campus records"
   }
  },
  {
   "type": "Feature",
   "geometry": {
    "type": "LineString",
    "coordinates": [
     [
      -95.3698,
      29.7604
     ],
     [
      -94.8791,
      29.6616
     ],
     [
      -94.3893,
      29.561
     ],
     [
      -93.9005,
      29.4586
     ],
     [
      -93.4128,
      29.3544
     ],
     [
      -92.926,
      29.2484
     ],
     [
      -92.4402,
      29.1407
     ],
     [
      -91.9555,
      29.0312
     ],
     [
      -91.4718,
      28.92
     ],
     [
      -90.9892,
      28.8071
     ],
     [
      -90.5076,
      28.6924
     ],
     [
      -90.027,
      28.5761
     ],
     [
      -89.5476,
      28.458
     ],
     [
      -89.0692,
      28.3383
     ],
     [
      -88.5919,
      28.217
     ],
     [
      -88.1156,
      28.0939
     ],
     [
      -87.6405,
      27.9693
     ],
     [
      -87.1665,
      27.843
     ],
     [
      -86.6936,
      27.715
     ],
     [
      -86.2218,
      27.5855
     ],
     [
      -85.7512,
      27.4544
     ],
     [
      -85.2816,
      27.3217
     ],
     [
      -84.8132,
      27.1875
     ],
     [
      -84.3459,
      27.0517
     ],
     [
      -83.8798,
      26.9143
     ],
     [
      -83.4148,
      26.7755
     ],
     [
      -82.9509,
      26.6351
     ],
     [
      -82.4882,
      26.4932
     ],
     [
      -82.0266,
      26.3498
     ],
     [
      -81.5662,
      26.205
     ],
     [
      -81.1069,
      26.0587
     ],
     [
      -80.6488,
      25.9109
     ],
     [
      -80.1918,
      25.7617
     ]
    ]
   },
   "properties": {
    "kind": "route",
    "from": "houston",
    "to": "miami",
    "km": 1556.8,
    "bearing_deg": 102.9,
    "provenance": "DERIVED",
    "source": "great-circle between the campus records"
   }
  },
  {
   "type": "Feature",
   "geometry": {
    "type": "LineString",
    "coordinates": [
     [
      -87.6298,
      41.8781
     ],
     [
      -88.588,
      42.2067
     ],
     [
      -89.556,
      42.5272
     ],
     [
      -90.5339,
      42.8396
     ],
     [
      -91.5216,
      43.1435
     ],
     [
      -92.5191,
      43.4388
     ],
     [
      -93.5261,
      43.7254
     ],
     [
      -94.5427,
      44.003
     ],
     [
      -95.5687,
      44.2716
     ],
     [
      -96.604,
      44.5309
     ],
     [
      -97.6484,
      44.7807
     ],
     [
      -98.7016,
      45.021
     ],
     [
      -99.7636,
      45.2514
     ],
     [
      -100.834,
      45.472
     ],
     [
      -101.9126,
      45.6825
     ],
     [
      -102.9992,
      45.8828
     ],
     [
      -104.0934,
      46.0727
     ],
     [
      -105.195,
      46.2521
     ],
     [
      -106.3036,
      46.4208
     ],
     [
      -107.4189,
      46.5788
     ],
     [
      -108.5404,
      46.7258
     ],
     [
      -109.6679,
      46.8619
     ],
     [
      -110.8009,
      46.9868
     ],
     [
      -111.9389,
      47.1005
     ],
     [
      -113.0815,
      47.2029
     ],
     [
      -114.2283,
      47.2938
     ],
     [
      -115.3789,
      47.3733
     ],
     [
      -116.5326,
      47.4413
     ],
     [
      -117.6891,
      47.4976
     ],
     [
      -118.8478,
      47.5423
     ],
     [
      -120.0082,
      47.5753
     ],
     [
      -121.1698,
      47.5966
     ],
     [
      -122.3321,
      47.6062
     ]
    ]
   },
   "properties": {
    "kind": "route",
    "from": "chicago",
    "to": "seattle",
    "km": 2788.9,
    "bearing_deg": 295.1,
    "provenance": "DERIVED",
    "source": "great-circle between the campus records"
   }
  },
  {
   "type": "Feature",
   "geometry": {
    "type": "LineString",
    "coordinates": [
     [
      -87.6298,
      41.8781
     ],
     [
      -87.3864,
      41.8409
     ],
     [
      -87.1432,
      41.8032
     ],
     [
      -86.9004,
      41.765
     ],
     [
      -86.6578,
      41.7263
     ],
     [
      -86.4156,
      41.6871
     ],
     [
      -86.1736,
      41.6474
     ],
     [
      -85.9319,
      41.6071
     ],
     [
      -85.6906,
      41.5664
     ],
     [
      -85.4495,
      41.5251
     ],
     [
      -85.2088,
      41.4834
     ],
     [
      -84.9683,
      41.4411
     ],
     [
      -84.7282,
      41.3984
     ],
     [
      -84.4884,
      41.3551
     ],
     [
      -84.2489,
      41.3114
     ],
     [
      -84.0098,
      41.2671
     ],
     [
      -83.7709,
      41.2224
     ],
     [
      -83.5324,
      41.1772
     ],
     [
      -83.2942,
      41.1314
     ],
     [
      -83.0564,
      41.0852
     ],
     [
      -82.8189,
      41.0385
     ],
     [
      -82.5817,
      40.9913
     ],
     [
      -82.3449,
      40.9437
     ],
     [
      -82.1084,
      40.8955
     ],
     [
      -81.8723,
      40.8469
     ],
     [
      -81.6365,
      40.7978
     ],
     [
      -81.4011,
      40.7482
     ],
     [
      -81.166,
      40.6981
     ],
     [
      -80.9312,
      40.6475
     ],
     [
      -80.6969,
      40.5965
     ],
     [
      -80.4628,
      40.545
     ],
     [
      -80.2292,
      40.493
     ],
     [
      -79.9959,
      40.4406
     ]
    ]
   },
   "properties": {
    "kind": "route",
    "from": "chicago",
    "to": "pittsburgh",
    "km": 658.5,
    "bearing_deg": 101.5,
    "provenance": "DERIVED",
    "source": "great-circle between the campus records"
   }
  },
  {
   "type": "Feature",
   "geometry": {
    "type": "LineString",
    "coordinates": [
     [
      -87.6298,
      41.8781
     ],
     [
      -88.1863,
      41.8516
     ],
     [
      -88.7423,
      41.8224
     ],
     [
      -89.2978,
      41.7905
     ],
     [
      -89.8527,
      41.7559
     ],
     [
      -90.407,
      41.7187
     ],
     [
      -90.9607,
      41.6788
     ],
     [
      -91.5136,
      41.6363
     ],
     [
      -92.0658,
      41.5911
     ],
     [
      -92.6171,
      41.5432
     ],
     [
      -93.1677,
      41.4928
     ],
     [
      -93.7173,
      41.4397
     ],
     [
      -94.2661,
      41.384
     ],
     [
      -94.8139,
      41.3257
     ],
     [
      -95.3606,
      41.2648
     ],
     [
      -95.9064,
      41.2014
     ],
     [
      -96.451,
      41.1353
     ],
     [
      -96.9946,
      41.0667
     ],
     [
      -97.537,
      40.9956
     ],
     [
      -98.0782,
      40.9219
     ],
     [
      -98.6181,
      40.8457
     ],
     [
      -99.1569,
      40.767
     ],
     [
      -99.6943,
      40.6858
     ],
     [
      -100.2304,
      40.6021
     ],
     [
      -100.7651,
      40.5159
     ],
     [
      -101.2984,
      40.4272
     ],
     [
      -101.8303,
      40.3362
     ],
     [
      -102.3608,
      40.2427
     ],
     [
      -102.8898,
      40.1467
     ],
     [
      -103.4172,
      40.0484
     ],
     [
      -103.9432,
      39.9477
     ],
     [
      -104.4675,
      39.8446
     ],
     [
      -104.9903,
      39.7392
     ]
    ]
   },
   "properties": {
    "kind": "route",
    "from": "chicago",
    "to": "denver",
    "km": 1477.7,
    "bearing_deg": 266.5,
    "provenance": "DERIVED",
    "source": "great-circle between the campus records"
   }
  },
  {
   "type": "Feature",
   "geometry": {
    "type": "LineString",
    "coordinates": [
     [
      -87.6298,
      41.8781
     ],
     [
      -87.3473,
      41.3823
     ],
     [
      -87.0692,
      40.8859
     ],
     [
      -86.7951,
      40.3888
     ],
     [
      -86.5251,
      39.8911
     ],
     [
      -86.259,
      39.3927
     ],
     [
      -85.9967,
      38.8938
     ],
     [
      -85.738,
      38.3943
     ],
     [
      -85.4829,
      37.8942
     ],
     [
      -85.2312,
      37.3935
     ],
     [
      -84.9828,
      36.8924
     ],
     [
      -84.7377,
      36.3907
     ],
     [
      -84.4958,
      35.8886
     ],
     [
      -84.2569,
      35.3859
     ],
     [
      -84.0209,
      34.8828
     ],
     [
      -83.7879,
      34.3793
     ],
     [
      -83.5576,
      33.8753
     ],
     [
      -83.33,
      33.3709
     ],
     [
      -83.105,
      32.866
     ],
     [
      -82.8826,
      32.3608
     ],
     [
      -82.6627,
      31.8552
     ],
     [
      -82.4452,
      31.3492
     ],
     [
      -82.23,
      30.8429
     ],
     [
      -82.017,
      30.3362
     ],
     [
      -81.8063,
      29.8291
     ],
     [
      -81.5976,
      29.3218
     ],
     [
      -81.3911,
      28.8141
     ],
     [
      -81.1865,
      28.3061
     ],
     [
      -80.9839,
      27.7978
     ],
     [
      -80.7832,
      27.2892
     ],
     [
      -80.5843,
      26.7803
     ],
     [
      -80.3872,
      26.2711
     ],
     [
      -80.1918,
      25.7617
     ]
    ]
   },
   "properties": {
    "kind": "route",
    "from": "chicago",
    "to": "miami",
    "km": 1917.3,
    "bearing_deg": 156.8,
    "provenance": "DERIVED",
    "source": "great-circle between the campus records"
   }
  },
  {
   "type": "Feature",
   "geometry": {
    "type": "LineString",
    "coordinates": [
     [
      -122.3321,
      47.6062
     ],
     [
      -120.9018,
      47.6384
     ],
     [
      -119.4702,
      47.6528
     ],
     [
      -118.0383,
      47.6494
     ],
     [
      -116.6071,
      47.6282
     ],
     [
      -115.1776,
      47.5891
     ],
     [
      -113.7506,
      47.5324
     ],
     [
      -112.3272,
      47.458
     ],
     [
      -110.9083,
      47.3661
     ],
     [
      -109.4948,
      47.2567
     ],
     [
      -108.0877,
      47.1299
     ],
     [
      -106.6876,
      46.9861
     ],
     [
      -105.2955,
      46.8253
     ],
     [
      -103.9121,
      46.6477
     ],
     [
      -102.5382,
      46.4535
     ],
     [
      -101.1745,
      46.243
     ],
     [
      -99.8216,
      46.0165
     ],
     [
      -98.4801,
      45.7741
     ],
     [
      -97.1506,
      45.5161
     ],
     [
      -95.8336,
      45.2428
     ],
     [
      -94.5296,
      44.9546
     ],
     [
      -93.2389,
      44.6517
     ],
     [
      -91.9619,
      44.3344
     ],
     [
      -90.699,
      44.003
     ],
     [
      -89.4504,
      43.6579
     ],
     [
      -88.2164,
      43.2993
     ],
     [
      -86.9971,
      42.9277
     ],
     [
      -85.7926,
      42.5432
     ],
     [
      -84.6031,
      42.1463
     ],
     [
      -83.4287,
      41.7373
     ],
     [
      -82.2694,
      41.3164
     ],
     [
      -81.1251,
      40.8841
     ],
     [
      -79.9959,
      40.4406
     ]
    ]
   },
   "properties": {
    "kind": "route",
    "from": "seattle",
    "to": "pittsburgh",
    "km": 3432.2,
    "bearing_deg": 87.6,
    "provenance": "DERIVED",
    "source": "great-circle between the campus records"
   }
  },
  {
   "type": "Feature",
   "geometry": {
    "type": "LineString",
    "coordinates": [
     [
      -122.3321,
      47.6062
     ],
     [
      -121.719,
      47.4035
     ],
     [
      -121.1106,
      47.1975
     ],
     [
      -120.507,
      46.9884
     ],
     [
      -119.9081,
      46.7761
     ],
     [
      -119.314,
      46.5607
     ],
     [
      -118.7246,
      46.3423
     ],
     [
      -118.1399,
      46.1208
     ],
     [
      -117.5599,
      45.8964
     ],
     [
      -116.9846,
      45.6691
     ],
     [
      -116.414,
      45.4389
     ],
     [
      -115.8481,
      45.206
     ],
     [
      -115.2868,
      44.9702
     ],
     [
      -114.7301,
      44.7317
     ],
     [
      -114.1781,
      44.4905
     ],
     [
      -113.6306,
      44.2467
     ],
     [
      -113.0876,
      44.0003
     ],
     [
      -112.5492,
      43.7514
     ],
     [
      -112.0152,
      43.4999
     ],
     [
      -111.4857,
      43.246
     ],
     [
      -110.9606,
      42.9896
     ],
     [
      -110.4399,
      42.7309
     ],
     [
      -109.9236,
      42.4698
     ],
     [
      -109.4115,
      42.2065
     ],
     [
      -108.9037,
      41.9408
     ],
     [
      -108.4002,
      41.673
     ],
     [
      -107.9008,
      41.403
     ],
     [
      -107.4056,
      41.1308
     ],
     [
      -106.9145,
      40.8565
     ],
     [
      -106.4275,
      40.5802
     ],
     [
      -105.9444,
      40.3019
     ],
     [
      -105.4654,
      40.0215
     ],
     [
      -104.9903,
      39.7392
     ]
    ]
   },
   "properties": {
    "kind": "route",
    "from": "seattle",
    "to": "denver",
    "km": 1640.7,
    "bearing_deg": 115.9,
    "provenance": "DERIVED",
    "source": "great-circle between the campus records"
   }
  },
  {
   "type": "Feature",
   "geometry": {
    "type": "LineString",
    "coordinates": [
     [
      -122.3321,
      47.6062
     ],
     [
      -120.6057,
      47.2047
     ],
     [
      -118.906,
      46.7777
     ],
     [
      -117.2339,
      46.3259
     ],
     [
      -115.5899,
      45.8501
     ],
     [
      -113.9744,
      45.3512
     ],
     [
      -112.3878,
      44.8299
     ],
     [
      -110.8302,
      44.287
     ],
     [
      -109.3016,
      43.7233
     ],
     [
      -107.8021,
      43.1397
     ],
     [
      -106.3314,
      42.5369
     ],
     [
      -104.8892,
      41.9156
     ],
     [
      -103.4752,
      41.2766
     ],
     [
      -102.089,
      40.6207
     ],
     [
      -100.7301,
      39.9485
     ],
     [
      -99.3979,
      39.2608
     ],
     [
      -98.0919,
      38.5582
     ],
     [
      -96.8115,
      37.8413
     ],
     [
      -95.5559,
      37.1109
     ],
     [
      -94.3245,
      36.3674
     ],
     [
      -93.1166,
      35.6116
     ],
     [
      -91.9315,
      34.844
     ],
     [
      -90.7685,
      34.0651
     ],
     [
      -89.6268,
      33.2754
     ],
     [
      -88.5057,
      32.4754
     ],
     [
      -87.4044,
      31.6658
     ],
     [
      -86.3223,
      30.8468
     ],
     [
      -85.2587,
      30.0189
     ],
     [
      -84.2127,
      29.1827
     ],
     [
      -83.1837,
      28.3385
     ],
     [
      -82.171,
      27.4866
     ],
     [
      -81.1739,
      26.6276
     ],
     [
      -80.1918,
      25.7617
     ]
    ]
   },
   "properties": {
    "kind": "route",
    "from": "seattle",
    "to": "miami",
    "km": 4396.1,
    "bearing_deg": 108.3,
    "provenance": "DERIVED",
    "source": "great-circle between the campus records"
   }
  },
  {
   "type": "Feature",
   "geometry": {
    "type": "LineString",
    "coordinates": [
     [
      -79.9959,
      40.4406
     ],
     [
      -80.7753,
      40.5009
     ],
     [
      -81.556,
      40.5559
     ],
     [
      -82.3379,
      40.6056
     ],
     [
      -83.121,
      40.6501
     ],
     [
      -83.905,
      40.6893
     ],
     [
      -84.6899,
      40.7231
     ],
     [
      -85.4755,
      40.7517
     ],
     [
      -86.2618,
      40.7749
     ],
     [
      -87.0485,
      40.7928
     ],
     [
      -87.8356,
      40.8053
     ],
     [
      -88.6229,
      40.8125
     ],
     [
      -89.4103,
      40.8143
     ],
     [
      -90.1977,
      40.8108
     ],
     [
      -90.985,
      40.8019
     ],
     [
      -91.772,
      40.7876
     ],
     [
      -92.5585,
      40.7681
     ],
     [
      -93.3446,
      40.7432
     ],
     [
      -94.13,
      40.7129
     ],
     [
      -94.9146,
      40.6774
     ],
     [
      -95.6983,
      40.6365
     ],
     [
      -96.4811,
      40.5904
     ],
     [
      -97.2626,
      40.5389
     ],
     [
      -98.0429,
      40.4822
     ],
     [
      -98.8219,
      40.4203
     ],
     [
      -99.5993,
      40.3532
     ],
     [
      -100.3751,
      40.2808
     ],
     [
      -101.1492,
      40.2033
     ],
     [
      -101.9215,
      40.1207
     ],
     [
      -102.6919,
      40.0329
     ],
     [
      -103.4602,
      39.9401
     ],
     [
      -104.2264,
      39.8421
     ],
     [
      -104.9903,
      39.7392
     ]
    ]
   },
   "properties": {
    "kind": "route",
    "from": "pittsburgh",
    "to": "denver",
    "km": 2120.6,
    "bearing_deg": 276.1,
    "provenance": "DERIVED",
    "source": "great-circle between the campus records"
   }
  },
  {
   "type": "Feature",
   "geometry": {
    "type": "LineString",
    "coordinates": [
     [
      -79.9959,
      40.4406
     ],
     [
      -80.0032,
      39.9819
     ],
     [
      -80.0104,
      39.5232
     ],
     [
      -80.0174,
      39.0645
     ],
     [
      -80.0244,
      38.6058
     ],
     [
      -80.0313,
      38.147
     ],
     [
      -80.0381,
      37.6883
     ],
     [
      -80.0449,
      37.2296
     ],
     [
      -80.0515,
      36.7709
     ],
     [
      -80.0581,
      36.3122
     ],
     [
      -80.0646,
      35.8535
     ],
     [
      -80.071,
      35.3948
     ],
     [
      -80.0774,
      34.936
     ],
     [
      -80.0836,
      34.4773
     ],
     [
      -80.0899,
      34.0186
     ],
     [
      -80.096,
      33.5599
     ],
     [
      -80.1021,
      33.1012
     ],
     [
      -80.1081,
      32.6425
     ],
     [
      -80.114,
      32.1838
     ],
     [
      -80.1199,
      31.725
     ],
     [
      -80.1258,
      31.2663
     ],
     [
      -80.1315,
      30.8076
     ],
     [
      -80.1373,
      30.3489
     ],
     [
      -80.1429,
      29.8902
     ],
     [
      -80.1486,
      29.4315
     ],
     [
      -80.1541,
      28.9727
     ],
     [
      -80.1596,
      28.514
     ],
     [
      -80.1651,
      28.0553
     ],
     [
      -80.1705,
      27.5966
     ],
     [
      -80.1759,
      27.1379
     ],
     [
      -80.1813,
      26.6791
     ],
     [
      -80.1865,
      26.2204
     ],
     [
      -80.1918,
      25.7617
     ]
    ]
   },
   "properties": {
    "kind": "route",
    "from": "pittsburgh",
    "to": "miami",
    "km": 1632.3,
    "bearing_deg": 180.7,
    "provenance": "DERIVED",
    "source": "great-circle between the campus records"
   }
  },
  {
   "type": "Feature",
   "geometry": {
    "type": "LineString",
    "coordinates": [
     [
      -104.9903,
      39.7392
     ],
     [
      -104.0869,
      39.3873
     ],
     [
      -103.1926,
      39.0286
     ],
     [
      -102.3074,
      38.6631
     ],
     [
      -101.4313,
      38.2909
     ],
     [
      -100.5642,
      37.9124
     ],
     [
      -99.7061,
      37.5275
     ],
     [
      -98.8568,
      37.1365
     ],
     [
      -98.0164,
      36.7395
     ],
     [
      -97.1847,
      36.3366
     ],
     [
      -96.3615,
      35.928
     ],
     [
      -95.5469,
      35.5139
     ],
     [
      -94.7408,
      35.0944
     ],
     [
      -93.9429,
      34.6695
     ],
     [
      -93.1532,
      34.2396
     ],
     [
      -92.3716,
      33.8046
     ],
     [
      -91.5979,
      33.3647
     ],
     [
      -90.8321,
      32.9201
     ],
     [
      -90.0739,
      32.4709
     ],
     [
      -89.3233,
      32.0171
     ],
     [
      -88.5802,
      31.559
     ],
     [
      -87.8443,
      31.0967
     ],
     [
      -87.1156,
      30.6302
     ],
     [
      -86.394,
      30.1596
     ],
     [
      -85.6792,
      29.6852
     ],
     [
      -84.9711,
      29.207
     ],
     [
      -84.2697,
      28.725
     ],
     [
      -83.5747,
      28.2395
     ],
     [
      -82.8861,
      27.7505
     ],
     [
      -82.2036,
      27.2581
     ],
     [
      -81.5271,
      26.7625
     ],
     [
      -80.8566,
      26.2636
     ],
     [
      -80.1918,
      25.7617
     ]
    ]
   },
   "properties": {
    "kind": "route",
    "from": "denver",
    "to": "miami",
    "km": 2776.5,
    "bearing_deg": 116.5,
    "provenance": "DERIVED",
    "source": "great-circle between the campus records"
   }
  },
  {
   "type": "Feature",
   "geometry": {
    "type": "Polygon",
    "coordinates": [
     [
      [
       -90.65,
       29.5
      ],
      [
       -89.45,
       29.5
      ],
      [
       -89.45,
       30.35
      ],
      [
       -90.65,
       30.35
      ],
      [
       -90.65,
       29.5
      ]
     ]
    ]
   },
   "properties": {
    "kind": "frame",
    "campus": "new-orleans",
    "provenance": "RECORDED",
    "source": "Locator.X build_data_nola.py region, Apache-2.0"
   }
  },
  {
   "type": "Feature",
   "geometry": {
    "type": "Polygon",
    "coordinates": [
     [
      [
       -124.2,
       36.2
      ],
      [
       -120.2,
       36.2
      ],
      [
       -120.2,
       39.2
      ],
      [
       -124.2,
       39.2
      ],
      [
       -124.2,
       36.2
      ]
     ]
    ]
   },
   "properties": {
    "kind": "frame",
    "campus": "treasure-island",
    "provenance": "RECORDED",
    "source": "Locator.X src/app.js map frame, Apache-2.0"
   }
  },
  {
   "type": "Feature",
   "geometry": {
    "type": "Polygon",
    "coordinates": [
     [
      [
       -95.9,
       29.45
      ],
      [
       -94.95,
       29.45
      ],
      [
       -94.95,
       30.15
      ],
      [
       -95.9,
       30.15
      ],
      [
       -95.9,
       29.45
      ]
     ]
    ]
   },
   "properties": {
    "kind": "frame",
    "campus": "houston",
    "provenance": "AUTHORED",
    "source": "widely-published public geography (metro-area extent), typed from general knowledge - not cross-checked against any file this build can verify"
   }
  },
  {
   "type": "Feature",
   "geometry": {
    "type": "Polygon",
    "coordinates": [
     [
      [
       -88.05,
       41.62
      ],
      [
       -87.35,
       41.62
      ],
      [
       -87.35,
       42.05
      ],
      [
       -88.05,
       42.05
      ],
      [
       -88.05,
       41.62
      ]
     ]
    ]
   },
   "properties": {
    "kind": "frame",
    "campus": "chicago",
    "provenance": "AUTHORED",
    "source": "widely-published public geography (metro-area extent), typed from general knowledge - not cross-checked against any file this build can verify"
   }
  },
  {
   "type": "Feature",
   "geometry": {
    "type": "Polygon",
    "coordinates": [
     [
      [
       -122.55,
       47.35
      ],
      [
       -121.95,
       47.35
      ],
      [
       -121.95,
       47.85
      ],
      [
       -122.55,
       47.85
      ],
      [
       -122.55,
       47.35
      ]
     ]
    ]
   },
   "properties": {
    "kind": "frame",
    "campus": "seattle",
    "provenance": "AUTHORED",
    "source": "widely-published public geography (metro-area extent), typed from general knowledge - not cross-checked against any file this build can verify"
   }
  },
  {
   "type": "Feature",
   "geometry": {
    "type": "Polygon",
    "coordinates": [
     [
      [
       -80.4,
       40.15
      ],
      [
       -79.6,
       40.15
      ],
      [
       -79.6,
       40.75
      ],
      [
       -80.4,
       40.75
      ],
      [
       -80.4,
       40.15
      ]
     ]
    ]
   },
   "properties": {
    "kind": "frame",
    "campus": "pittsburgh",
    "provenance": "AUTHORED",
    "source": "widely-published public geography (metro-area extent), typed from general knowledge - not cross-checked against any file this build can verify"
   }
  },
  {
   "type": "Feature",
   "geometry": {
    "type": "Polygon",
    "coordinates": [
     [
      [
       -105.35,
       39.45
      ],
      [
       -104.6,
       39.45
      ],
      [
       -104.6,
       40.05
      ],
      [
       -105.35,
       40.05
      ],
      [
       -105.35,
       39.45
      ]
     ]
    ]
   },
   "properties": {
    "kind": "frame",
    "campus": "denver",
    "provenance": "AUTHORED",
    "source": "widely-published public geography (metro-area extent), typed from general knowledge - not cross-checked against any file this build can verify"
   }
  },
  {
   "type": "Feature",
   "geometry": {
    "type": "Polygon",
    "coordinates": [
     [
      [
       -80.55,
       25.45
      ],
      [
       -80.05,
       25.45
      ],
      [
       -80.05,
       26.05
      ],
      [
       -80.55,
       26.05
      ],
      [
       -80.55,
       25.45
      ]
     ]
    ]
   },
   "properties": {
    "kind": "frame",
    "campus": "miami",
    "provenance": "AUTHORED",
    "source": "widely-published public geography (metro-area extent), typed from general knowledge - not cross-checked against any file this build can verify"
   }
  }
 ]
}
